{"type": "FeatureCollection", "features": [{"type": "Feature", "geometry": {"type": "LineString", "coordinates": [[37.95445999999999, 56.06075], [37.85076050398295, 56.042782708898415], [37.74715777438841, 56.02472854199188], [37.643652120642095, 56.00658763951798], [37.54024384949013, 55.98836014208944], [37.43693326499989, 55.97004619068957], [37.333720668560915, 55.95164592666762], [37.23060635888606, 55.93315949173423], [37.1275906320127, 55.91458702795694], [37.02467378130418, 55.89592867775557], [36.92185609745127, 55.87718458389775], [36.819137868473916, 55.85835488949431], [36.71651937972301, 55.83943973799477], [36.61400091388241, 55.82043927318289], [36.51158275097094, 55.80135363917209], [36.409265168344724, 55.78218298040097], [36.30704844069951, 55.76292744162882], [36.20493284007319, 55.743587167931175], [36.10291863584843, 55.72416230469526], [36.00100609475548, 55.704652997615625], [35.89919548087504, 55.685059392689574], [35.79748705564135, 55.6653816362129], [35.695881077845286, 55.645619874775235], [35.594377803637755, 55.62577425525582], [35.492977486533036, 55.60584492481896], [35.3916803774124, 55.58583203090974], [35.290486724527725, 55.5657357212495], [35.189396773505365, 55.54555614383161], [35.08841076735003, 55.52529344691699], [34.98752894644883, 55.50494777902979], [34.886751548575496, 55.484519288953074], [34.7860788088946, 55.4640081257245], [34.68551095996601, 55.44341443863193], [34.5850482317494, 55.42273837720923], [34.48469085160885, 55.40198009123188], [34.38443904431769, 55.38113973071279], [34.28429303206326, 55.36021744589796], [34.184253034451984, 55.339213387262305], [34.08431926851438, 55.31812770550533], [33.9844919487103, 55.29696055154701], [33.884771286934246, 55.27571207652347], [33.785157492520774, 55.254382431782915], [33.68565077225001, 55.23297176888134], [33.58625133035327, 55.21148023957844], [33.486959368518825, 55.18990799583345], [33.387775085897665, 55.16825518980095], [33.28869867910953, 55.14652197382686], [33.18973034224884, 55.12470850044421], [33.09087026689092, 55.10281492236913], [32.992118642098134, 55.080841392496794], [32.8934756544263, 55.05878806389731], [32.794941487931055, 55.036655089811674], [32.696516324174404, 55.01444262364779], [32.598200342231266, 54.99215081897647], [32.49999371869627, 54.96977982952739], [32.401896627690434, 54.947329809185156], [32.303909240868144, 54.92480091198531], [32.20603172742402, 54.90219329211044], [32.10826425410004, 54.8795071038862], [32.01060698519265, 54.85674250177745], [31.913060082559973, 54.83389964038434], [31.81562370562914, 54.81097867443843], [31.718298011403622, 54.787979758798876], [31.621083154470764, 54.76490304844853], [31.52397928700927, 54.7417486984902], [31.426986558796838, 54.71851686414274], [31.330105117217872, 54.6952077007374], [31.233335107271238, 54.67182136371392], [31.13667667157813, 54.648358008616896], [31.040129950389957, 54.624817791092006], [30.943695081596356, 54.60120086688227], [30.847372200733254, 54.57750739182444], [30.751161440990998, 54.55373752184519], [30.655062933222553, 54.529891412957625], [30.559076805951737, 54.505969221257516], [30.463203185381605, 54.48197110291974], [30.367442195402827, 54.45789721419467], [30.27179395760213, 54.4337477114046], [30.176258591270813, 54.40952275094017], [30.08083621341337, 54.385222489256854], [29.9855269387561, 54.36084708287137], [29.890330879755826, 54.3363966883583], [29.79524814660862, 54.31187146234648], [29.700278847258677, 54.28727156151559], [29.605423087407132, 54.262597142592725], [29.510680970520998, 54.237848362348934], [29.416052597842164, 54.213025377595855], [29.32153806839641, 54.18812834518228], [29.227137479002476, 54.16315742199084], [29.1328509242812, 54.13811276493465], [29.038678496664712, 54.11299453095391], [28.94462028640565, 54.08780287701273], [28.85067638158642, 54.06253796009573], [28.756846868128502, 54.037199937204825], [28.663131829801866, 54.01178896535596], [28.56953134823432, 53.986305201575924], [28.47604550292098, 53.96074880289911], [28.382674371233744, 53.93511992636428], [28.28941802843085, 53.90941872901154], [28.196276547666404, 53.88364536787906], [28.103250000000003, 53.8578]]}, "properties": {"fa_flight_id": "RA65690-1597214622-adhoc-0", "registration": "RA-65690", "ident": "RA-65690", "ident_icao": NaN, "origin_code": "L 56.06075 37.95446", "origin_city": "Moscow", "destination_code": "L 53.85780 28.10325", "destination_city": "Minsk", "scheduled_out": NaN, "estimated_out": NaN, "actual_out": NaN, "scheduled_off": "2020-08-12T06:43:42Z", "estimated_off": "2020-08-12T06:43:42Z", "actual_off": "2020-08-12T06:43:42Z", "scheduled_on": NaN, "estimated_on": NaN, "actual_on": "2020-08-12T06:43:42Z", "scheduled_in": NaN, "estimated_in": NaN, "actual_in": NaN, "status": "result unknown", "route_distance": NaN, "diverted": false, "cancelled": false, "simplified_departure_date": "2020-08-12", "origin_coords": [56.06075, 37.95446], "destination_coords": [53.8578, 28.10325], "is_same_city": false}}, {"type": "Feature", "geometry": {"type": "LineString", "coordinates": [[28.188899999999997, 53.81627], [28.186988907304563, 53.817354708112816], [28.185077715676908, 53.8184393858497], [28.183166425110738, 53.81952403320788], [28.181255035599783, 53.82060865018457], [28.179343547137762, 53.82169323677699], [28.177431959718394, 53.82277779298234], [28.175520273335394, 53.82386231879789], [28.17360848798248, 53.82494681422081], [28.171696603653377, 53.826031279248355], [28.169784620341783, 53.8271157138777], [28.167872538041443, 53.828200118106125], [28.165960356746062, 53.82928449193079], [28.16404807644936, 53.83036883534894], [28.16213569714505, 53.83145314835779], [28.16022321882685, 53.83253743095456], [28.158310641488487, 53.833621683136464], [28.15639796512367, 53.83470590490072], [28.15448518972612, 53.835790096244544], [28.152572315289554, 53.83687425716515], [28.150659341807682, 53.837958387659754], [28.148746269274245, 53.839042487725585], [28.146833097682926, 53.84012655735985], [28.144919827027472, 53.841210596559755], [28.143006457301585, 53.84229460532253], [28.141092988498986, 53.84337858364539], [28.139179420613395, 53.84446253152552], [28.137265753638523, 53.84554644896017], [28.135351987568097, 53.84663033594654], [28.13343812239582, 53.84771419248186], [28.13152415811542, 53.848798018563315], [28.1296100947206, 53.849881814188144], [28.127695932205093, 53.85096557935354], [28.125781670562606, 53.85204931405674], [28.123867309786867, 53.853133018294926], [28.12195284987158, 53.85421669206534], [28.120038290810463, 53.85530033536518], [28.118123632597243, 53.85638394819165], [28.116208875225617, 53.857467530541975], [28.114294018689318, 53.858551082413356], [28.112379062982065, 53.85963460380304], [28.110464008097555, 53.86071809470818], [28.108548854029515, 53.861801555126014], [28.106633600771673, 53.86288498505376], [28.104718248317727, 53.86396838448863], [28.102802796661397, 53.865051753427814], [28.1008872457964, 53.866135091868536], [28.098971595716467, 53.86721839980802], [28.097055846415284, 53.86830167724343], [28.095139997886594, 53.86938492417202], [28.093224050124103, 53.87046814059098], [28.09130800312152, 53.87155132649752], [28.08939185687256, 53.872634481888845], [28.08747561137094, 53.87371760676217], [28.085559266610396, 53.874800701114694], [28.083642822584615, 53.87588376494364], [28.08172627928733, 53.876966798246194], [28.07980963671226, 53.87804980101957], [28.077892894853093, 53.879132773260984], [28.07597605370357, 53.88021571496764], [28.0740591132574, 53.88129862613674], [28.07214207350829, 53.88238150676549], [28.070224934449957, 53.883464356851086], [28.06830769607613, 53.884547176390754], [28.066390358380513, 53.88562996538168], [28.064472921356813, 53.886712723821084], [28.062555384998756, 53.88779545170616], [28.06063774930006, 53.88887814903413], [28.058720014254433, 53.88996081580216], [28.056802179855584, 53.891043452007494], [28.054884246097224, 53.89212605764732], [28.052966212973097, 53.89320863271883], [28.051048080476892, 53.89429117721925], [28.049129848602313, 53.89537369114577], [28.047211517343104, 53.89645617449559], [28.04529308669296, 53.897538627265924], [28.043374556645595, 53.89862104945395], [28.04145592719474, 53.89970344105689], [28.039537198334095, 53.90078580207195], [28.037618370057366, 53.90186813249632], [28.03569944235829, 53.902950432327195], [28.033780415230567, 53.904032701561796], [28.031861288667898, 53.90511494019729], [28.029942062664016, 53.90619714823092], [28.028022737212634, 53.907279325659864], [28.026103312307455, 53.908361472481324], [28.024183787942206, 53.90944358869249], [28.022264164110588, 53.91052567429057], [28.02034444080632, 53.91160772927277], [28.01842461802312, 53.91268975363628], [28.01650469575469, 53.91377174737829], [28.01458467399475, 53.914853710496025], [28.012664552737014, 53.91593564298665], [28.010744331975197, 53.91701754484739], [28.00882401170301, 53.918099416075414], [28.006903591914156, 53.919181256667954], [28.004983072602364, 53.920263066622184], [28.003062453761338, 53.92134484593531], [28.001141735384792, 53.922426594604524], [27.99922091746644, 53.923508312627014], [27.997300000000003, 53.92459]]}, "properties": {"fa_flight_id": "RA65690-1643966794-adhoc-0", "registration": "RA-65690", "ident": "RA-65690", "ident_icao": NaN, "origin_code": "L 53.81627 28.18890", "origin_city": "Minsk", "destination_code": "L 53.92459 27.99730", "destination_city": "Minsk", "scheduled_out": NaN, "estimated_out": NaN, "actual_out": NaN, "scheduled_off": "2022-02-04T09:26:34Z", "estimated_off": "2022-02-04T09:26:34Z", "actual_off": "2022-02-04T09:26:34Z", "scheduled_on": NaN, "estimated_on": NaN, "actual_on": "2022-02-04T09:26:34Z", "scheduled_in": NaN, "estimated_in": NaN, "actual_in": NaN, "status": "result unknown", "route_distance": NaN, "diverted": false, "cancelled": false, "simplified_departure_date": "2022-02-04", "origin_coords": [53.81627, 28.1889], "destination_coords": [53.92459, 27.9973], "is_same_city": false}}, {"type": "Feature", "geometry": {"type": "LineString", "coordinates": [[30.30071, 52.40876999999999], [30.279473505542107, 52.42345844167772], [30.258222857285755, 52.43814307659602], [30.236958041958445, 52.45282390019671], [30.215679046278957, 52.46750090791568], [30.194385856957386, 52.48217409518288], [30.173078460695123, 52.49684345742241], [30.151756844184888, 52.51150899005244], [30.130420994110718, 52.526170688485166], [30.109070897148047, 52.54082854812692], [30.08770653996362, 52.55548256437805], [30.066327909215584, 52.57013273263298], [30.044934991553475, 52.58477904828017], [30.023527773618216, 52.59942150670213], [30.002106242042178, 52.614060103275385], [29.980670383449137, 52.62869483337054], [29.959220184454317, 52.64332569235215], [29.93775563166441, 52.65795267557881], [29.916276711677586, 52.67257577840316], [29.894783411083473, 52.68719499617177], [29.87327571646324, 52.701810324225264], [29.851753614389537, 52.71642175789821], [29.830217091426565, 52.73102929251916], [29.808666134130075, 52.74563292341068], [29.78710072904736, 52.76023264588924], [29.765520862717295, 52.77482845526531], [29.743926521670353, 52.78942034684327], [29.722317692428586, 52.8040083159215], [29.7006943615057, 52.81859235779228], [29.679056515407023, 52.83317246774181], [29.65740414062952, 52.84774864105024], [29.635737223661838, 52.86232087299161], [29.614055750984296, 52.876889158833905], [29.592359709068916, 52.891453493838966], [29.57064908437943, 52.90601387326257], [29.548923863371297, 52.92057029235434], [29.527184032491736, 52.93512274635785], [29.505429578179697, 52.94967123051045], [29.483660486865926, 52.964215740043414], [29.461876744972972, 52.97875627018192], [29.440078338915164, 52.99329281614489], [29.418265255098696, 53.007825373145195], [29.396437479921566, 53.02235393638948], [29.374594999773652, 53.03687850107825], [29.352737801036714, 53.05139906240583], [29.330865870084388, 53.06591561556036], [29.308979193282237, 53.08042815572378], [29.287077756987735, 53.094936678071875], [29.26516154755032, 53.10944117777419], [29.243230551311374, 53.12394164999407], [29.221284754604273, 53.13843808988864], [29.19932414375438, 53.1529304926088], [29.177348705079083, 53.167418853299246], [29.155358424887783, 53.1819031670984], [29.133353289481956, 53.19638342913844], [29.111333285155144, 53.21085963454535], [29.08929839819296, 53.22533177843877], [29.067248614873133, 53.23979985593214], [29.045183921465515, 53.25426386213261], [29.023104304232113, 53.26872379214103], [29.001009749427055, 53.28317964105199], [28.978900243296703, 53.29763140395377], [28.956775772079574, 53.312079075928345], [28.934636322006426, 53.32652265205143], [28.91248187930026, 53.34096212739236], [28.890312430176298, 53.35539749701419], [28.868127960842067, 53.36982875597363], [28.84592845749739, 53.38425589932106], [28.823713906334394, 53.39867892210053], [28.801484293537534, 53.41309781934972], [28.77923960528364, 53.42751258609996], [28.756979827741894, 53.44192321737624], [28.734704947073883, 53.456329708197146], [28.712414949433622, 53.470732053574906], [28.690109820967514, 53.485130248515354], [28.66778954781448, 53.499524288017945], [28.64545411610587, 53.51391416707575], [28.623103511965546, 53.52829988067539], [28.600737721509876, 53.54268142379711], [28.5783567308478, 53.55705879141474], [28.555960526080785, 53.57143197849567], [28.53354909330287, 53.585800980000855], [28.511122418600728, 53.600165790884816], [28.488680488053635, 53.61452640609563], [28.46622328773351, 53.6288828205749], [28.44375080370494, 53.64323502925782], [28.421263022025222, 53.65758302707308], [28.398759928744315, 53.67192680894288], [28.37624150990497, 53.68626636978297], [28.35370775154263, 53.700601704502624], [28.331158639685565, 53.71493280800458], [28.30859416035482, 53.72925967518509], [28.286014299564258, 53.743582300933916], [28.26341904332059, 53.75790068013427], [28.240808377623413, 53.772214807662884], [28.218182288465183, 53.786524678389924], [28.195540761831293, 53.80083028717904], [28.17288378370006, 53.815131628887336], [28.150211340042762, 53.82942869836536], [28.127523416823642, 53.84372149045709], [28.104820000000004, 53.85801]]}, "properties": {"fa_flight_id": "RA65690-1643890378-adhoc-0", "registration": "RA-65690", "ident": "RA-65690", "ident_icao": NaN, "origin_code": "L 52.40877 30.30071", "origin_city": "Gomel", "destination_code": "L 53.85801 28.10482", "destination_city": "Minsk", "scheduled_out": NaN, "estimated_out": NaN, "actual_out": NaN, "scheduled_off": "2022-02-03T12:12:58Z", "estimated_off": "2022-02-03T12:12:58Z", "actual_off": "2022-02-03T12:12:58Z", "scheduled_on": NaN, "estimated_on": NaN, "actual_on": "2022-02-03T12:12:58Z", "scheduled_in": NaN, "estimated_in": NaN, "actual_in": NaN, "status": "result unknown", "route_distance": NaN, "diverted": false, "cancelled": false, "simplified_departure_date": "2022-02-03", "origin_coords": [52.40877, 30.30071], "destination_coords": [53.85801, 28.10482], "is_same_city": false}}, {"type": "Feature", "geometry": {"type": "LineString", "coordinates": [[28.519030000000004, 53.87204], [28.54709969185039, 53.859147642086214], [28.57515208755518, 53.84624873857453], [28.603187197175217, 53.833343296589426], [28.63120503078289, 53.82043132324887], [28.65920559846186, 53.80751282566437], [28.687188910307192, 53.7945878109409], [28.71515497642514, 53.781656286176926], [28.743103806933135, 53.76871825846446], [28.771035411959716, 53.75577373488896], [28.798949801644472, 53.742822722529446], [28.82684698613794, 53.729865228458344], [28.854726975601558, 53.71690125974165], [28.882589780207606, 53.70393082343882], [28.910435410139122, 53.6909539266028], [28.938263875589843, 53.677970576280075], [28.966075186764133, 53.66498077951054], [28.993869353876924, 53.65198454332766], [29.021646387153623, 53.63898187475833], [29.049406296830096, 53.62597278082295], [29.07714909315256, 53.612957268535446], [29.104874786377508, 53.599935344903194], [29.13258338677168, 53.58690701692705], [29.160274904611995, 53.573872291601376], [29.187949350185434, 53.560831175914025], [29.215606733789038, 53.547783676846294], [29.243247065729815, 53.53472980137303], [29.27087035632464, 53.52166955646251], [29.298476615900274, 53.508602949076504], [29.326065854793217, 53.495529986170304], [29.353638083349672, 53.48245067469262], [29.38119331192551, 53.469365021585695], [29.408731550886152, 53.45627303378523], [29.436252810606543, 53.44317471822042], [29.46375710147109, 53.43007008181394], [29.491244433873565, 53.41695913148194], [29.518714818217067, 53.40384187413404], [29.546168264913966, 53.390718316673365], [29.5736047843858, 53.3775884659965], [29.601024387063262, 53.36445232899352], [29.6284270833861, 53.351309912548004], [29.655812883803073, 53.33816122353695], [29.683181798771887, 53.32500626883091], [29.710533838759115, 53.311845055293844], [29.737869014240154, 53.29867758978323], [29.765187335699153, 53.28550387915005], [29.792488813628967, 53.272323930238734], [29.819773458531067, 53.259137749887174], [29.847041280915494, 53.245945344926774], [29.87429229130082, 53.23274672218241], [29.901526500214022, 53.21954188847246], [29.928743918190516, 53.20633085060875], [29.955944555773993, 53.19311361539659], [29.98312842351643, 53.17989018963478], [30.010295531978024, 53.16666058011564], [30.037445891727074, 53.15342479362489], [30.064579513339996, 53.140182836941804], [30.091696407401212, 53.126934716839116], [30.1187965845031, 53.11368044008302], [30.145880055245986, 53.10042001343324], [30.17294683023797, 53.08715344364294], [30.199996920094975, 53.073880737458786], [30.227030335440638, 53.06060190162094], [30.254047086906276, 53.047316942863056], [30.28104718513079, 53.034025867912234], [30.308030640760652, 53.02072868348911], [30.33499746444979, 53.00742539630777], [30.361947666859592, 52.99411601307581], [30.3888812586588, 52.9808005404943], [30.41579825052347, 52.96747898525782], [30.442698653136926, 52.954151354054424], [30.469582477189675, 52.940817653565674], [30.496449733379386, 52.92747789046659], [30.523300432410792, 52.914132071425726], [30.550134584995625, 52.9007802031051], [30.57695220185265, 52.88742229216024], [30.603753293707484, 52.87405834524019], [30.63053787129264, 52.86068836898743], [30.657305945347392, 52.847312370038], [30.68405752661778, 52.833930355021394], [30.710792625856538, 52.82054233056065], [30.737511253822987, 52.80714830327226], [30.76421342128306, 52.79374827976625], [30.790899139009188, 52.78034226664614], [30.817568417780265, 52.76693027050894], [30.844221268381606, 52.753512297945186], [30.870857701604848, 52.7400883555389], [30.89747772824795, 52.72665844986765], [30.924081359115092, 52.71322258750246], [30.95066860501666, 52.69978077500788], [30.977239476769146, 52.68633301894201], [31.00379398519513, 52.672879325856414], [31.030332141123207, 52.65941970229619], [31.05685395538796, 52.645954154799966], [31.08335943882987, 52.63248268989984], [31.109848602295262, 52.61900531412147], [31.136321456636306, 52.60552203398402], [31.162778012710877, 52.592032856000195], [31.189218281382598, 52.57853778667616], [31.21564227352069, 52.56503683251167], [31.24205, 52.55153]]}, "properties": {"fa_flight_id": "RA65690-1643884441-adhoc-0", "registration": "RA-65690", "ident": "RA-65690", "ident_icao": NaN, "origin_code": "L 53.87204 28.51903", "origin_city": "Minsk", "destination_code": "L 52.55153 31.24205", "destination_city": "Gomel", "scheduled_out": NaN, "estimated_out": NaN, "actual_out": NaN, "scheduled_off": "2022-02-03T10:34:01Z", "estimated_off": "2022-02-03T10:34:01Z", "actual_off": "2022-02-03T10:34:01Z", "scheduled_on": NaN, "estimated_on": NaN, "actual_on": "2022-02-03T10:34:01Z", "scheduled_in": NaN, "estimated_in": NaN, "actual_in": NaN, "status": "result unknown", "route_distance": NaN, "diverted": false, "cancelled": false, "simplified_departure_date": "2022-02-03", "origin_coords": [53.87204, 28.51903], "destination_coords": [52.55153, 31.24205], "is_same_city": false}}, {"type": "Feature", "geometry": {"type": "LineString", "coordinates": [[28.569160000000004, 53.93739], [28.562588790288544, 53.93927694624361], [28.55601698620014, 53.94116353382829], [28.549444587752912, 53.943049762696766], [28.542871594965035, 53.94493563279179], [28.536298007854725, 53.94682114405608], [28.52972382644027, 53.94870629643239], [28.523149050739992, 53.95059108986342], [28.51657368077228, 53.95247552429198], [28.509997716555564, 53.95435959966072], [28.50342115810833, 53.95624331591243], [28.496844005449127, 53.95812667298981], [28.490266258596534, 53.96000967083561], [28.483687917569206, 53.96189230939254], [28.477108982385843, 53.96377458860334], [28.470529453065186, 53.965656508410746], [28.46394932962605, 53.96753806875747], [28.45736861208728, 53.96941926958624], [28.45078730046779, 53.971300110839785], [28.444205394786536, 53.97318059246084], [28.43762289506253, 53.97506071439211], [28.43103980131486, 53.97694047657632], [28.42445611356262, 53.9788198789562], [28.417871831824993, 53.98069892147445], [28.411286956121202, 53.98257760407381], [28.404701486470536, 53.984455926697], [28.398115422892307, 53.98633388928673], [28.391528765405916, 53.988211491785705], [28.384941514030782, 53.990088734136656], [28.378353668786406, 53.991965616282286], [28.371765229692336, 53.99384213816533], [28.365176196768147, 53.99571829972847], [28.358586570033506, 53.997594100914455], [28.351996349508106, 53.99946954166597], [28.345405535211697, 54.001344621925725], [28.3388141271641, 54.00321934163644], [28.33222212538517, 54.00509370074082], [28.325629529894808, 54.00696769918157], [28.319036340712994, 54.008841336901405], [28.31244255785974, 54.010714613843014], [28.305848181355124, 54.01258752994913], [28.29925321121927, 54.01446008516243], [28.29265764747235, 54.01633227942564], [28.286061490134607, 54.01820411268144], [28.27946473922632, 54.020075584872565], [28.27286739476783, 54.021946695941665], [28.266269456779526, 54.02381744583149], [28.259670925281856, 54.02568783448472], [28.25307180029531, 54.02755786184405], [28.246472081840448, 54.0294275278522], [28.239871769937867, 54.03129683245182], [28.233270864608237, 54.03316577558566], [28.226669365872265, 54.03503435719638], [28.220067273750697, 54.0369025772267], [28.213464588264387, 54.03877043561929], [28.206861309434167, 54.04063793231687], [28.20025743728099, 54.0425050672621], [28.193652971825824, 54.04437184039771], [28.187047913089692, 54.04623825166636], [28.180442261093695, 54.04810430101076], [28.173836015858967, 54.04996998837359], [28.1672291774067, 54.051835313697524], [28.160621745758135, 54.05370027692529], [28.15401372093458, 54.05556487799956], [28.147405102957364, 54.057429116863005], [28.140795891847926, 54.059292993458314], [28.134186087627707, 54.06115650772819], [28.127575690318224, 54.06301965961531], [28.12096469994104, 54.06488244906236], [28.11435311651779, 54.06674487601201], [28.10774094007013, 54.06860694040696], [28.101128170619795, 54.07046864218989], [28.09451480818857, 54.07232998130347], [28.08790085279829, 54.0741909576904], [28.08128630447085, 54.07605157129334], [28.074671163228174, 54.077911822054986], [28.06805542909228, 54.07977170991801], [28.06143910208521, 54.0816312348251], [28.054822182229056, 54.08349039671892], [28.048204669546003, 54.08534919554215], [28.04158656405824, 54.08720763123746], [28.034967865788044, 54.08906570374756], [28.028348574757732, 54.090923413015084], [28.021728690989676, 54.092780758982734], [28.01510821450631, 54.094637741593175], [28.008487145330104, 54.09649436078908], [28.00186548348361, 54.098350616513116], [27.995243228989406, 54.100206508707984], [27.98862038187013, 54.10206203731631], [27.981996942148502, 54.10391720228081], [27.97537290984725, 54.10577200354412], [27.96874828498919, 54.10762644104893], [27.96212306759718, 54.10948051473791], [27.95549725769414, 54.111334224553744], [27.94887085530303, 54.11318757043907], [27.942243860446876, 54.115040552336566], [27.935616273148746, 54.11689317018889], [27.92898809343179, 54.11874542393873], [27.922359321319178, 54.12059731352876], [27.91572995683415, 54.12244883890163], [27.9091, 54.1243]]}, "properties": {"fa_flight_id": "RA65690-1650619318-adhoc-0", "registration": "RA-65690", "ident": "RA-65690", "ident_icao": NaN, "origin_code": "L 53.93739 28.56916", "origin_city": "Minsk", "destination_code": "L 54.12430 27.90910", "destination_city": "Minsk", "scheduled_out": NaN, "estimated_out": NaN, "actual_out": NaN, "scheduled_off": "2022-04-22T09:21:58Z", "estimated_off": "2022-04-22T09:21:58Z", "actual_off": "2022-04-22T09:21:58Z", "scheduled_on": NaN, "estimated_on": NaN, "actual_on": "2022-04-22T09:21:58Z", "scheduled_in": NaN, "estimated_in": NaN, "actual_in": NaN, "status": "result unknown", "route_distance": NaN, "diverted": false, "cancelled": false, "simplified_departure_date": "2022-04-22", "origin_coords": [53.93739, 28.56916], "destination_coords": [54.1243, 27.9091], "is_same_city": false}}, {"type": "Feature", "geometry": {"type": "LineString", "coordinates": [[30.68446000000001, 54.46335], [30.755778257242206, 54.47932636625517], [30.827152179794894, 54.49526072125298], [30.89858169696688, 54.51115300749998], [30.970066737399307, 54.52700316755213], [31.04160722906447, 54.542811144015694], [31.11320309926469, 54.55857687954792], [31.18485427463112, 54.57430031685791], [31.256560681122675, 54.589981398707415], [31.328322244024864, 54.60562006791161], [31.40013888794873, 54.621216267339854], [31.47201053682975, 54.63676993991664], [31.543937113926724, 54.6522810286222], [31.615918541820797, 54.66774947649351], [31.687954742414345, 54.68317522662493], [31.760045636929945, 54.698558222169176], [31.83219114590942, 54.713898406337975], [31.904391189212777, 54.72919572240303], [31.97664568601724, 54.74445011369669], [32.04895455481631, 54.75966152361293], [32.121317713418755, 54.774829895608036], [32.193735078947704, 54.789955173201534], [32.26620656783972, 54.80503729997688], [32.33873209584388, 54.820076219582475], [32.41131157802088, 54.83507187573233], [32.48394492874218, 54.85002421220699], [32.55663206168911, 54.864933172854336], [32.62937288985202, 54.879798701590396], [32.7021673255295, 54.89462074240024], [32.77501528032751, 54.909399239338796], [32.847916665158586, 54.92413413653165], [32.92087139024113, 54.938825378175935], [32.99387936509852, 54.95347290854115], [33.06694049855848, 54.96807667197003], [33.14005469875227, 54.982636612879375], [33.21322187311401, 54.99715267576091], [33.28644192837997, 55.0116248051821], [33.359714770587885, 55.02605294578706], [33.433040305076304, 55.04043704229734], [33.506418436483926, 55.05477703951286], [33.57984906874897, 55.06907288231271], [33.6533321051086, 55.083324515656], [33.7268674480983, 55.09753188458277], [33.80045499955124, 55.111694934214825], [33.87409466059788, 55.12581360975653], [33.94778633166525, 55.13988785649583], [34.02152991247654, 55.15391761980498], [34.09532530205054, 55.16790284514144], [34.16917239870122, 55.181843478048776], [34.24307110003716, 55.195739464157526], [34.31702130296122, 55.20959074918601], [34.391022903670006, 55.2233972789413], [34.46507579765353, 55.23715899931999], [34.53917987969477, 55.25087585630916], [34.61333504386932, 55.26454779598716], [34.68754118354506, 55.2781747645246], [34.761798191381764, 55.29175670818512], [34.83610595933083, 55.305293573326324], [34.91046437863497, 55.31878530640065], [34.9848733398279, 55.33223185395624], [35.059332732734156, 55.345633162637846], [35.1338424464688, 55.358989179187695], [35.208402369437195, 55.37229985044637], [35.28301238933487, 55.38556512335367], [35.35767239314725, 55.398784944949576], [35.432382267149585, 55.41195926237507], [35.507141896906774, 55.42508802287303], [35.58195116727324, 55.43817117378911], [35.65680996239285, 55.45120866257269], [35.73171816569883, 55.46420043677767], [35.80667565991372, 55.477146444063465], [35.88168232704931, 55.490046632195806], [35.95673804840668, 55.502900949047664], [36.03184270457615, 55.51570934260018], [36.10699617543734, 55.5284717609435], [36.182198340159204, 55.54118815227769], [36.25744907720014, 55.55385846491367], [36.332748264308, 55.56648264727403], [36.40809577852029, 55.579060647893975], [36.483491496164255, 55.591592415422255], [36.558935292857036, 55.604077898621966], [36.63442704350587, 55.61651704637154], [36.7099666223083, 55.62890980766558], [36.78555390275231, 55.64125613161581], [36.8611887576167, 55.653555967451915], [36.936871058971235, 55.66580926452246], [37.012600678176995, 55.67801597229583], [37.088377485886696, 55.69017604036108], [37.16420135204494, 55.702289418428855], [37.24007214588867, 55.71435605633225], [37.31598973594747, 55.72637590402778], [37.391953990044, 55.738348911596255], [37.467964775294426, 55.7502750292436], [37.544021958108814, 55.76215420730189], [37.62012540419166, 55.773986396230114], [37.69627497854235, 55.785771546615216], [37.77247054545563, 55.79750960917284], [37.848711968522245, 55.80920053474836], [37.92499911062938, 55.820844274317736], [38.00133183396131, 55.83244077898835], [38.077709999999996, 55.84398999999999]]}, "properties": {"fa_flight_id": "RA65690-1651148258-adhoc-0", "registration": "RA-65690", "ident": "RA-65690", "ident_icao": NaN, "origin_code": "L 54.46335 30.68446", "origin_city": "Vitebsk", "destination_code": "L 55.84399 38.07771", "destination_city": "Moscow", "scheduled_out": NaN, "estimated_out": NaN, "actual_out": NaN, "scheduled_off": "2022-04-28T12:17:38Z", "estimated_off": "2022-04-28T12:17:38Z", "actual_off": "2022-04-28T12:17:38Z", "scheduled_on": NaN, "estimated_on": NaN, "actual_on": "2022-04-28T12:17:38Z", "scheduled_in": NaN, "estimated_in": NaN, "actual_in": NaN, "status": "result unknown", "route_distance": NaN, "diverted": false, "cancelled": false, "simplified_departure_date": "2022-04-28", "origin_coords": [54.46335, 30.68446], "destination_coords": [55.84399, 38.07771], "is_same_city": false}}, {"type": "Feature", "geometry": {"type": "LineString", "coordinates": [[30.1956, 59.5759], [30.28251101378428, 59.54147408696909], [30.36924446280122, 59.506990685667965], [30.455800658946245, 59.47244999250514], [30.542179915404123, 59.437852203329115], [30.628382546625605, 59.403197513427855], [30.7144088683043, 59.368486117528406], [30.80025919735364, 59.333718209796324], [30.885933851884147, 59.29889398383541], [30.971433151180822, 59.26401363268727], [31.056757415680682, 59.22907734883099], [31.141906966950533, 59.19408532418278], [31.226882127664936, 59.15903775009582], [31.31168322158429, 59.123934817359796], [31.396310573533132, 59.088776716200904], [31.480764509378663, 59.0535636362815], [31.56504535600935, 59.01829576669997], [31.6491534413138, 58.98297329599063], [31.73308909415977, 58.94759641212357], [31.816852644373363, 58.91216530250455], [31.900444422718408, 58.87668015397502], [31.983864760875992, 58.84114115281199], [32.06711399142424, 58.805548484728114], [32.150192447818135, 58.76990233487161], [32.233100464369684, 58.73420288782645], [32.31583837622812, 58.69845032761223], [32.39840651936038, 58.66264483768444], [32.48080523053162, 58.62678660093453], [32.563034847286104, 58.59087579968999], [32.64509570792808, 58.5549126157146], [32.72698815150291, 58.51889723020857], [32.808712517778375, 58.48282982380877], [32.89026914722617, 58.44671057658898], [32.97165838100346, 58.4105396680601], [33.05288056093472, 58.37431727717051], [33.133936029493775, 58.33804358230632], [33.2148251297858, 58.30171876129165], [33.29554820552974, 58.265342991389105], [33.376105601040734, 58.22891644930003], [33.45649766121274, 58.19243931116494], [33.53672473150138, 58.15591175256392], [33.61678715790687, 58.11933394851707], [33.696685286957155, 58.08270607348493], [33.77641946569122, 58.04602830136895], [33.85599004164251, 58.009300805512034], [33.935397362822584, 57.972523758698976], [34.01464177770485, 57.935697333156995], [34.09372363520854, 57.89882170055633], [34.17264328468275, 57.86189703201075], [34.25140107589074, 57.82492349807815], [34.329997358994326, 57.78790126876118], [34.40843248453842, 57.75083051350783], [34.486706803435766, 57.71371140121203], [34.564820666951825, 57.676544100214386], [34.64277442668979, 57.639328778302826], [34.72056843457576, 57.60206560271318], [34.79820304284404, 57.56475474013001], [34.875678604022724, 57.5273963566873], [34.95299547091919, 57.48999061796906], [35.030153996605996, 57.45253768901034], [35.10715453440677, 57.41503773429768], [35.18399743788221, 57.377490917770075], [35.26068306081648, 57.33989740281981], [35.337211757203406, 57.302257352293076], [35.413583881233095, 57.26457092849097], [35.48979978727853, 57.226838293170196], [35.565859829882456, 57.18905960754406], [35.641764363744244, 57.15123503228318], [35.71751374370699, 57.11336472751646], [35.79310832474476, 57.07544885283196], [35.86854846194998, 57.037487567277765], [35.943834510520894, 56.99948102936293], [36.01896682574921, 56.9614293970584], [36.09394576300792, 56.92333282779796], [36.16877167773916, 56.88519147847916], [36.2434449254423, 56.84700550546429], [36.31796586166214, 56.808775064581354], [36.39233484197716, 56.77050031112508], [36.46655222198806, 56.732181399857865], [36.54061835730627, 56.69381848501086], [36.61453360354272, 56.65541172028488], [36.688298316296596, 56.616961258851546], [36.761912851144444, 56.578467253354255], [36.835377563629116, 56.53992985590924], [36.90869280924914, 56.50134921810667], [36.98185894344796, 56.462725491011646], [37.054876321603494, 56.42405882516537], [37.127745299017676, 56.385349370586134], [37.20046623090621, 56.34659727677054], [37.27303947238843, 56.30780269269449], [37.34546537847725, 56.26896576681434], [37.41774430406924, 56.23008664706807], [37.489876603934896, 56.19116548087638], [37.56186263270888, 56.15220241514381], [37.633702744880566, 56.113197596259944], [37.70539729478451, 56.07415117010052], [37.776946636591234, 56.035063282028574], [37.84835112429789, 55.99593407689573], [37.919611111719306, 55.956763699043236], [37.99072695247894, 55.91755229230326], [38.061699, 55.8783]]}, "properties": {"fa_flight_id": "RA65690-1654876843-adhoc-0", "registration": "RA-65690", "ident": "RA-65690", "ident_icao": NaN, "origin_code": "L 59.57590 30.19560", "origin_city": "Saint Petersburg", "destination_code": "UUMU", "destination_city": NaN, "scheduled_out": NaN, "estimated_out": NaN, "actual_out": NaN, "scheduled_off": "2022-06-10T16:00:43Z", "estimated_off": "2022-06-10T16:00:43Z", "actual_off": "2022-06-10T16:00:43Z", "scheduled_on": NaN, "estimated_on": NaN, "actual_on": "2022-06-10T16:00:43Z", "scheduled_in": NaN, "estimated_in": NaN, "actual_in": NaN, "status": "result unknown", "route_distance": NaN, "diverted": false, "cancelled": false, "simplified_departure_date": "2022-06-10", "origin_coords": [59.5759, 30.1956], "destination_coords": [55.8783, 38.061699], "is_same_city": false}}, {"type": "Feature", "geometry": {"type": "LineString", "coordinates": [[37.98118, 55.92273000000001], [37.91107431352043, 55.96167729689443], [37.84082745823748, 56.00058472548063], [37.77043908786548, 56.039452146916425], [37.69990885590239, 56.078279421869205], [37.62923641563805, 56.11706641051474], [37.558421420162695, 56.155812972536], [37.48746352237545, 56.19451896712201], [37.41636237499298, 56.2331842529667], [37.34511763055823, 56.271808688267775], [37.273728941449306, 56.31039213072556], [37.20219595988844, 56.348934437541864], [37.13051833795109, 56.3874354654189], [37.058695727575085, 56.42589507055811], [36.98672778057003, 56.46431310865912], [36.91461414862666, 56.50268943491861], [36.84235448332637, 56.541023904029196], [36.769948436150926, 56.579316370178425], [36.6973956584922, 56.61756668704763], [36.624695801662085, 56.65577470781089], [36.55184851690247, 56.693940285134], [36.47885345539539, 56.73206327117336], [36.40571026827329, 56.77014351757501], [36.33241860662935, 56.808180875473546], [36.25897812152804, 56.84617519549113], [36.18538846401563, 56.88412632773647], [36.111649285131065, 56.922034121803804], [36.037760235916714, 56.95989842677198], [35.963720967429396, 56.997719091203365], [35.88953113075152, 57.035495963142964], [35.81519037700229, 57.073228890117434], [35.74069835734907, 57.110917719134115], [35.6660547230189, 57.14856229668012], [35.59125912531014, 57.18616246872141], [35.51631121560416, 57.2237180807019], [35.441210645377325, 57.261228977542444], [35.36595706621292, 57.29869500364011], [35.29055012981337, 57.33611600286719], [35.21498948801249, 57.373491818570336], [35.13927479278794, 57.41082229356977], [35.06340569627374, 57.448107270158395], [34.987381850773005, 57.48534659010099], [34.911202908770754, 57.52254009463334], [34.8348685229469, 57.55968762446148], [34.75837834618931, 57.59678901976097], [34.68173203160713, 57.63384412017596], [34.604929232544116, 57.670852764818584], [34.52796960259216, 57.7078147922681], [34.450852795605016, 57.74473004057024], [34.373578465712065, 57.781598347236454], [34.296146267332304, 57.8184195492432], [34.21855585518844, 57.8551934830313], [34.140806884321144, 57.89191998450518], [34.062899010103436, 57.928598889032294], [33.98483188825526, 57.96523003144251], [33.90660517485814, 58.00181324602734], [33.828218526370065, 58.03834836653951], [33.7496715996404, 58.074835226192214], [33.67096405192515, 58.1112736576587], [33.59209554090212, 58.147663493071484], [33.5130657246865, 58.18400456402209], [33.43387426184629, 58.220296701560294], [33.35452081141824, 58.25653973619372], [33.2750050329236, 58.292733497887376], [33.195326586384304, 58.328877816063134], [33.115485132339074, 58.36497251959926], [33.03548033185985, 58.40101743683009], [32.95531184656837, 58.43701239554548], [32.874979338652764, 58.472957222990495], [32.794482470884454, 58.50885174586511], [32.71382090663514, 58.54469579032362], [32.63299430989402, 58.58048918197459], [32.552002345285025, 58.61623174588037], [32.4708446780844, 58.65192330655678], [32.38952097423831, 58.687563687973004], [32.308030900380636, 58.7231527135512], [32.22637412385103, 58.7586902061663], [32.144550312712965, 58.79417598814586], [32.062559135772126, 58.82960988126983], [31.98040026259481, 58.864991706770375], [31.89807336352663, 58.9003212853318], [31.815578109711282, 58.935598437090384], [31.732914173109528, 58.97082298163431], [31.65008122651834, 59.00599473800365], [31.56707894359022, 59.041113524690175], [31.483906998852678, 59.07617915963751], [31.400565067727864, 59.11119146024103], [31.317052826552406, 59.146150243347954], [31.233369952597393, 59.18105532525732], [31.149516124088535, 59.215906521720164], [31.06549102022651, 59.25070364793959], [30.981294321207457, 59.28544651857084], [30.89692570824366, 59.320134947721606], [30.812384863584406, 59.35476874895207], [30.727671470536983, 59.38934773527515], [30.64278521348793, 59.42387171915685], [30.55772577792436, 59.4583405125164], [30.472492850455556, 59.4927539267266], [30.38708611883464, 59.52711177261418], [30.301505271980535, 59.5614138604601], [30.215749999999996, 59.59566000000001]]}, "properties": {"fa_flight_id": "RA65690-1654847989-adhoc-0", "registration": "RA-65690", "ident": "RA-65690", "ident_icao": NaN, "origin_code": "L 55.92273 37.98118", "origin_city": "Moscow", "destination_code": "L 59.59566 30.21575", "destination_city": "Saint Petersburg", "scheduled_out": NaN, "estimated_out": NaN, "actual_out": NaN, "scheduled_off": "2022-06-10T07:59:49Z", "estimated_off": "2022-06-10T07:59:49Z", "actual_off": "2022-06-10T07:59:49Z", "scheduled_on": NaN, "estimated_on": NaN, "actual_on": "2022-06-10T07:59:49Z", "scheduled_in": NaN, "estimated_in": NaN, "actual_in": NaN, "status": "result unknown", "route_distance": NaN, "diverted": false, "cancelled": false, "simplified_departure_date": "2022-06-10", "origin_coords": [55.92273, 37.98118], "destination_coords": [59.59566, 30.21575], "is_same_city": false}}, {"type": "Feature", "geometry": {"type": "LineString", "coordinates": [[28.90627, 53.61424999999999], [28.992674211456567, 53.64019327408682], [29.07918464806186, 53.666074261967125], [29.16580128482781, 53.69189282808343], [29.25252409519075, 53.71764883682214], [29.339353051003105, 53.74334215251571], [29.42628812252543, 53.76897263944478], [29.513329278418098, 53.79454016184032], [29.6004764857333, 53.820044583885846], [29.68772970990691, 53.845485769719545], [29.77508891475038, 53.87086358343658], [29.862554062442676, 53.896177889091256], [29.950125113522247, 53.92142855069923], [30.037802026878946, 53.946615432239874], [30.125584759746033, 53.971738397658406], [30.213473267692216, 53.996797310868295], [30.301467504613548, 54.02179203575352], [30.389567422725634, 54.04672243617088], [30.477772972555528, 54.07158837595236], [30.566084102933946, 54.09638971890738], [30.654500760987283, 54.12112632882536], [30.743022892129787, 54.1457980694779], [30.831650440055682, 54.17040480462124], [30.920383346731374, 54.194946397998756], [31.009221552387626, 54.21942271334328], [31.098164995511816, 54.24383361437959], [31.187213612840154, 54.26817896482687], [31.27636733934999, 54.29245862840118], [31.36562610825211, 54.316672468817906], [31.454989850983093, 54.340820349794356], [31.54445849719769, 54.36490213505219], [31.63403197476118, 54.38891768831999], [31.723710209741853, 54.41286687333586], [31.813493126403433, 54.43674955384987], [31.903380647197615, 54.4605655936268], [31.993372692756555, 54.484314856448556], [32.08346918188549, 54.507997206116954], [32.173670031555304, 54.53161250645627], [32.263975156895135, 54.55516062131582], [32.35438447118514, 54.57864141457273], [32.444897885849144, 54.602054750134556], [32.53551531044738, 54.625400491941974], [32.626236652669334, 54.648678503971475], [32.71706181832656, 54.6718886502381], [32.807990711345525, 54.695030794798186], [32.899023233760545, 54.71810480175207], [32.99015928570677, 54.741110535246854], [33.081398765413134, 54.76404785947927], [33.17274156919546, 54.786916638698365], [33.26418759144949, 54.80971673720835], [33.355736724644125, 54.8324480193714], [33.44738885931445, 54.85511034961058], [33.539143884055164, 54.877703592412544], [33.63100168551369, 54.900227612330546], [33.72296214838362, 54.92268227398721], [33.81502515539806, 54.9450674420775], [33.90719058732309, 54.96738298137159], [33.9994583229512, 54.98962875671777], [34.091828239094866, 55.01180463304546], [34.184300210580155, 55.033910475368025], [34.27687411024038, 55.055946148785885], [34.36954980890976, 55.07791151848941], [34.46232717541724, 55.09980644976192], [34.55520607658028, 55.1216308079827], [34.648186377198755, 55.143384458630024], [34.741267940048864, 55.16506726728417], [34.83445062587715, 55.18667909963053], [34.92773429339459, 55.20821982146256], [35.02111879927065, 55.22968929868493], [35.11460399812755, 55.251087397316596], [35.20818974253444, 55.272413983493905], [35.30187588300178, 55.293668923473675], [35.39566226797567, 55.31485208363639], [35.48954874383233, 55.33596333048922], [35.583535154872614, 55.35700253066931], [35.677621343316574, 55.37796955094685], [35.77180714929813, 55.39886425822829], [35.86609241085979, 55.41968651955951], [35.96047696394745, 55.440436202129014], [36.05496064240524, 55.46111317327119], [36.14954327797051, 55.481717300469505], [36.244224700268774, 55.5022484513597], [36.33900473680885, 55.522706493733125], [36.43388321297807, 55.543091295539945], [36.52885995203739, 55.56340272489241], [36.623934775116794, 55.583640650068176], [36.71910750121073, 55.60380493951356], [36.814377947173504, 55.62389546184687], [36.90974592771488, 55.643912085861736], [37.0052112553957, 55.66385468053042], [37.10077374062364, 55.68372311500712], [37.19643319164894, 55.703517258631415], [37.29218941456039, 55.72323698093155], [37.388042213281224, 55.742882151627825], [37.483991389565226, 55.762452640636006], [37.58003674299282, 55.781948318070654], [37.67617807096735, 55.80136905424861], [37.77241516871141, 55.82071471969237], [37.86874782926319, 55.839985185133486], [37.96517584347303, 55.859180321516014], [38.061699, 55.8783]]}, "properties": {"fa_flight_id": "RA65690-1664385501-adhoc-0", "registration": "RA-65690", "ident": "RA-65690", "ident_icao": NaN, "origin_code": "L 53.61425 28.90627", "origin_city": "Minsk", "destination_code": "UUMU", "destination_city": NaN, "scheduled_out": NaN, "estimated_out": NaN, "actual_out": NaN, "scheduled_off": "2022-09-28T17:18:21Z", "estimated_off": "2022-09-28T17:18:21Z", "actual_off": "2022-09-28T17:18:21Z", "scheduled_on": NaN, "estimated_on": NaN, "actual_on": "2022-09-28T17:18:21Z", "scheduled_in": NaN, "estimated_in": NaN, "actual_in": NaN, "status": "result unknown", "route_distance": NaN, "diverted": false, "cancelled": false, "simplified_departure_date": "2022-09-28", "origin_coords": [53.61425, 28.90627], "destination_coords": [55.8783, 38.061699], "is_same_city": false}}, {"type": "Feature", "geometry": {"type": "LineString", "coordinates": [[37.93033, 55.94528], [37.82255243166212, 55.92691533384619], [37.71487722572594, 55.90845667291603], [37.60730473508734, 55.88990417183773], [37.49983530957051, 55.871257985689944], [37.39246929592834, 55.85251826999642], [37.285207037842916, 55.833685180720465], [37.178048875926244, 55.814758874259454], [37.07099514772116, 55.79573950743948], [36.964046187702415, 55.776627237509786], [36.85720232727785, 55.75742222213741], [36.75046389478993, 55.73812461940171], [36.64383121551732, 55.71873458778897], [36.537304611676646, 55.699252286186976], [36.43088440242449, 55.67967787387962], [36.3245709038595, 55.66001151054147], [36.218364429024746, 55.64025335623246], [36.112265287910134, 55.62040357139244], [36.006273787455115, 55.600462316835866], [35.90039023155142, 55.58042975374645], [35.794614921046154, 55.56030604367176], [35.68894815374483, 55.54009134851798], [35.58339022441476, 55.519785830544514], [35.477941424788476, 55.499389652358744], [35.37260204356738, 55.47890297691071], [35.2673723664256, 55.45832596748781], [35.16225267601377, 55.43765878770961], [35.05724325196335, 55.41690160152252], [34.95234437089072, 55.39605457319457], [34.84755630640164, 55.37511786731021], [34.74287932909588, 55.3540916487651], [34.63831370657184, 55.3329760827609], [34.533859703431496, 55.31177133480008], [34.42951758128536, 55.29047757068081], [34.3252875987576, 55.26909495649172], [34.22117001149146, 55.24762365860689], [34.11716507215462, 55.226063843680606], [34.01327303044476, 55.20441567864234], [33.90949413309535, 55.18267933069165], [33.805828623881474, 55.1608549672931], [33.70227674362583, 55.1389427561712], [33.59883873020489, 55.11694286530539], [33.49551481855512, 55.09485546292506], [33.39230524067941, 55.07268071750447], [33.289210225653626, 55.05041879775783], [33.1862299996332, 55.02806987263428], [33.08336478585998, 55.00563411131307], [32.98061480466911, 54.98311168319848], [32.87798027349606, 54.96050275791498], [32.775461406883785, 54.93780750530239], [32.673058416490036, 54.91502609541092], [32.570771511094726, 54.89215869849642], [32.4686008966074, 54.86920548501543], [32.366546776074976, 54.84616662562048], [32.264609349689394, 54.82304229115524], [32.16278881479551, 54.799832652649776], [32.06108536589908, 54.77653788131577], [31.95949919467479, 54.753158148541836], [31.85803048997452, 54.72969362588876], [31.756679437835555, 54.70614448508486], [31.65544622148905, 54.682510898021256], [31.554331021368505, 54.65879303674733], [31.45333401511837, 54.63499107346597], [31.35245537760274, 54.611105180529066], [31.251695280914216, 54.587135530432924], [31.15105389438273, 54.5630822958136], [31.050531384584605, 54.538945649442525], [30.95012791535159, 54.51472576422184], [30.849843647780123, 54.49042281318001], [30.749678740240526, 54.466036969467304], [30.64963334838643, 54.441568406351315], [30.549707625164196, 54.41701729721266], [30.449901720822474, 54.39238381554039], [30.35021578292184, 54.367668134927776], [30.250649956344468, 54.34287042906785], [30.151204383303945, 54.31799087174917], [30.051879203355174, 54.29302963685134], [29.952674553404265, 54.26798689834093], [29.85359056771861, 54.24286283026704], [29.754627377936984, 54.21765760675719], [29.65578511307969, 54.192371402012995], [29.557063899558873, 54.16700439030605], [29.458463861188786, 54.141556745973716], [29.359985119196242, 54.11602864341499], [29.26162779223102, 54.09042025708643], [29.163391996376447, 54.06473176149792], [29.065277845159972, 54.03896333120878], [28.96728544956382, 54.01311514082358], [28.86941491803575, 53.98718736498815], [28.7716663564998, 53.96118017838566], [28.674039868367178, 53.935093755732495], [28.57653555454713, 53.90892827177445], [28.47915351345792, 53.88268390128269], [28.381893841037876, 53.856360819049954], [28.284756630756398, 53.82995919988656], [28.187741973625158, 53.80347921861668], [28.090849958209223, 53.77692105007442], [27.99408067063832, 53.750284869100014], [27.89743419461811, 53.72357085053614], [27.800910611441495, 53.69677916922407], [27.70451, 53.66991000000001]]}, "properties": {"fa_flight_id": "RA65690-1664349146-adhoc-0", "registration": "RA-65690", "ident": "RA-65690", "ident_icao": NaN, "origin_code": "L 55.94528 37.93033", "origin_city": "Moscow", "destination_code": "L 53.66991 27.70451", "destination_city": "Minsk", "scheduled_out": NaN, "estimated_out": NaN, "actual_out": NaN, "scheduled_off": "2022-09-28T07:12:26Z", "estimated_off": "2022-09-28T07:12:26Z", "actual_off": "2022-09-28T07:12:26Z", "scheduled_on": NaN, "estimated_on": NaN, "actual_on": "2022-09-28T07:12:26Z", "scheduled_in": NaN, "estimated_in": NaN, "actual_in": NaN, "status": "result unknown", "route_distance": NaN, "diverted": false, "cancelled": false, "simplified_departure_date": "2022-09-28", "origin_coords": [55.94528, 37.93033], "destination_coords": [53.66991, 27.70451], "is_same_city": false}}, {"type": "Feature", "geometry": {"type": "LineString", "coordinates": [[28.011379999999996, 53.68092000000001], [28.105160170886318, 53.707151109232974], [28.19905717773943, 53.73330889648322], [28.293070949876157, 53.75939320019134], [28.38720141445964, 53.78540385878975], [28.48144849648929, 53.81134071070595], [28.57581211879081, 53.83720359436584], [28.67029220200624, 53.86299234819694], [28.76488866458403, 53.88870681063175], [28.859601422769185, 53.91434682011106], [28.95443039059343, 53.93991221508728], [29.049375479865407, 53.96540283402787], [29.144436600160958, 53.99081851541871], [29.23961365881345, 54.01615909776749], [29.334906560904077, 54.04142441960718], [29.43031520925232, 54.0666143194995], [29.525839504406335, 54.09172863603836], [29.62147934463353, 54.116767207853385], [29.717234625911097, 54.14172987361346], [29.813105241916574, 54.1666164720302], [29.909091084018577, 54.19142684186162], [30.005192041267488, 54.216160821915615], [30.101408000386247, 54.24081825105362], [30.19773884576115, 54.265398968194255], [30.294184459432813, 54.28990281231692], [30.390744721087046, 54.31432962246546], [30.48741950804595, 54.338679237751926], [30.584208695258926, 54.36295149736022], [30.681112155293903, 54.38714624054982], [30.778129758328458, 54.41126330665954], [30.87526137214116, 54.43530253511132], [30.972506862102886, 54.45926376541399], [31.069866091168247, 54.48314683716707], [31.167338919867078, 54.5069515900646], [31.26492520629596, 54.53067786389904], [31.362624806109935, 54.55432549856503], [31.460437572514085, 54.577894334063394], [31.558363356255448, 54.60138421050496], [31.656402005614762, 54.62479496811452], [31.75455336639849, 54.648126447234745], [31.852817281930783, 54.67137848833019], [31.951193593045566, 54.694550931991266], [32.049682138078765, 54.71764361893821], [32.14828275286055, 54.7406563900251], [32.246995270707636, 54.76358908624397], [32.34581952241581, 54.78644154872876], [32.444755336252335, 54.80921361875945], [32.54380253794865, 54.831905137766164], [32.64296095069304, 54.85451594733323], [32.7422303951234, 54.87704588920334], [32.84161068932014, 54.89949480528172], [32.94110164879918, 54.9218625376402], [33.04070308650496, 54.944148928521535], [33.14041481280366, 54.96635382034346], [33.24023663547644, 54.98847705570301], [33.34016835971283, 55.01051847738069], [33.440209788104134, 55.03247792834477], [33.54036072063707, 55.0543552517555], [33.64062095468738, 55.076150290969416], [33.74099028501362, 55.09786288954366], [33.84146850375105, 55.11949289124027], [33.94205540040562, 55.14104014003048], [34.04275076184801, 55.16250448009914], [34.14355437230791, 55.18388575584901], [34.244466013368275, 55.205183811905165], [34.34548546395977, 55.22639849311941], [34.446612500355286, 55.24752964457461], [34.547846896164664, 55.26857711158921], [34.64918842232936, 55.28954073972158], [34.7506368471174, 55.310420374774544], [34.85219193611835, 55.331215862799795], [34.95385345223848, 55.3519270501024], [35.05562115569594, 55.37255378324524], [35.15749480401622, 55.3930959090536], [35.25947415202753, 55.41355327461964], [35.36155895185652, 55.433925727306935], [35.46374895292396, 55.454213114754964], [35.5660439019406, 55.47441528488381], [35.66844354290321, 55.49453208589859], [35.770947617090705, 55.51456336629411], [35.87355586306035, 55.534508974859435], [35.97626801664419, 55.55436876068249], [36.07908381094559, 55.57414257315473], [36.18200297633587, 55.593830261975675], [36.28502524045108, 55.613431677157685], [36.38815032818898, 55.63294666903046], [36.49137796170608, 55.652375088245826], [36.59470786041485, 55.67171678578233], [36.69813974098108, 55.690971612949966], [36.80167331732138, 55.710139421394835], [36.905308300600815, 55.72922006310389], [37.00904439923067, 55.74821339040958], [37.11288131886638, 55.767119255994686], [37.21681876240561, 55.7859375128969], [37.320856429986506, 55.80466801451368], [37.42499401898603, 55.82331061460694], [37.52923122401843, 55.84186516730782], [37.63356773693406, 55.860331527121446], [37.73800324681806, 55.87870954893169], [37.8425374399894, 55.89699908800596], [37.94717, 55.9152]]}, "properties": {"fa_flight_id": "RA65690-1666963186-adhoc-0", "registration": "RA-65690", "ident": "RA-65690", "ident_icao": NaN, "origin_code": "L 53.68092 28.01138", "origin_city": "Minsk", "destination_code": "L 55.91520 37.94717", "destination_city": "Moscow", "scheduled_out": NaN, "estimated_out": NaN, "actual_out": NaN, "scheduled_off": "2022-10-28T13:19:46Z", "estimated_off": "2022-10-28T13:19:46Z", "actual_off": "2022-10-28T13:19:46Z", "scheduled_on": NaN, "estimated_on": NaN, "actual_on": "2022-10-28T13:19:46Z", "scheduled_in": NaN, "estimated_in": NaN, "actual_in": NaN, "status": "result unknown", "route_distance": NaN, "diverted": false, "cancelled": false, "simplified_departure_date": "2022-10-28", "origin_coords": [53.68092, 28.01138], "destination_coords": [55.9152, 37.94717], "is_same_city": false}}, {"type": "Feature", "geometry": {"type": "LineString", "coordinates": [[38.209270000000004, 55.73819], [38.10160348671891, 55.72144468979697], [37.994029524085626, 55.70460530252972], [37.886548491317626, 55.687671978602445], [37.779160764808886, 55.67064485892599], [37.67186671812737, 55.65352408491282], [37.564666722012625, 55.63630979847191], [37.457561144373635, 55.619002142003694], [37.350550350286774, 55.60160125839488], [37.243634701994026, 55.58410729101343], [37.136814558901264, 55.56652038370346], [37.03009027757688, 55.54884068078017], [36.9234622117504, 55.5310683270247], [36.81693071231137, 55.513203467679105], [36.71049612730845, 55.49524624844129], [36.604158801948614, 55.47719681545984], [36.497919078596546, 55.459055315329074], [36.39177729677417, 55.44082189508391], [36.28573379316046, 55.42249670219479], [36.17978890159128, 55.40407988456267], [36.07394295305948, 55.38557159051395], [35.968196275715144, 55.36697196879539], [35.86254919486594, 55.348281168569166], [35.757002032977766, 55.32949933940771], [35.651555109675414, 55.31062663128879], [35.54620874174352, 55.29166319459044], [35.440963243127555, 55.27260918008596], [35.33581892493506, 55.253464738938874], [35.23077609543707, 55.23423002269802], [35.12583506006956, 55.21490518329243], [35.020996121435175, 55.195490373026495], [34.91625957930506, 55.175985744574874], [34.81162573062088, 55.156391450977594], [34.70709486949692, 55.13670764563507], [34.6026672872224, 55.11693448230318], [34.49834327226398, 55.0970721150883], [34.39412311026823, 55.07712069844239], [34.29000708406451, 55.057080387158116], [34.18599547366781, 55.036951336363884], [34.082088556281725, 55.01673370151899], [33.97828660630172, 54.99642763840872], [33.87458989531846, 54.9760333031395], [33.77099869212117, 54.95555085213401], [33.66751326270137, 54.93498044212636], [33.56413387025652, 54.91432223015722], [33.46086077519396, 54.89357637356903], [33.3576942351349, 54.87274303000121], [33.25463450491858, 54.85182235738532], [33.15168183660654, 54.830814513940275], [33.0488364794871, 54.80971965816762], [32.94609868007982, 54.78853794884675], [32.84346868214022, 54.76726954503013], [32.74094672666464, 54.74591460603865], [32.638533051895074, 54.724473291456825], [32.536227893324316, 54.70294576112816], [32.4340314837011, 54.68133217515043], [32.33194405303541, 54.659632693871025], [32.22996582860393, 54.63784747788229], [32.12809703495557, 54.6159766880169], [32.02633789391716, 54.594020485343236], [31.924688624599213, 54.57197903116073], [31.82314944340182, 54.54985248699535], [31.721720564020718, 54.527641014594984], [31.620402197453362, 54.5053447759249], [31.519194552005203, 54.48296393316316], [31.418097833296024, 54.46049864869616], [31.3171122442664, 54.43794908511408], [31.21623798518429, 54.415315405206414], [31.1154752536517, 54.39259777195748], [31.01482424461146, 54.369796348541975], [30.91428515035412, 54.34691129832055], [30.813858160524962, 54.32394278483537], [30.713543462131028, 54.30089097180572], [30.613341239548358, 54.277756023123644], [30.513251674529286, 54.254538102849516], [30.41327494620981, 54.2312373752078], [30.313411231117048, 54.207854004582614], [30.21366070317685, 54.18438815551348], [30.11402353372146, 54.160839992691045], [30.01449989149726, 54.13720968095277], [29.915089942672644, 54.11349738527873], [29.815793850845928, 54.08970327078729], [29.716611777053426, 54.06582750273104], [29.617543879777486, 54.04187024649246], [29.51859031495478, 54.017831667579834], [29.4197512359845, 53.99371193162306], [29.321026793736795, 53.96951120436956], [29.22241713656116, 53.94522965168009], [29.123922410294995, 53.920867439524734], [29.025542758272188, 53.89642473397881], [28.927278321331794, 53.871901701218775], [28.82912923782682, 53.84729850751823], [28.73109564363302, 53.82261531924396], [28.633177672157778, 53.797852302851815], [28.535375454349168, 53.77300962488291], [28.43768911870489, 53.74808745195953], [28.34011879128146, 53.72308595078126], [28.24266459570336, 53.6980052881212], [28.14532665317229, 53.67284563082185], [28.048105082476457, 53.64760714579143], [27.951000000000004, 53.62229]]}, "properties": {"fa_flight_id": "RA65690-1666851512-adhoc-0", "registration": "RA-65690", "ident": "RA-65690", "ident_icao": NaN, "origin_code": "L 55.73819 38.20927", "origin_city": "Moscow", "destination_code": "L 53.62229 27.95100", "destination_city": "Minsk", "scheduled_out": NaN, "estimated_out": NaN, "actual_out": NaN, "scheduled_off": "2022-10-27T06:18:32Z", "estimated_off": "2022-10-27T06:18:32Z", "actual_off": "2022-10-27T06:18:32Z", "scheduled_on": NaN, "estimated_on": NaN, "actual_on": "2022-10-27T06:18:32Z", "scheduled_in": NaN, "estimated_in": NaN, "actual_in": NaN, "status": "result unknown", "route_distance": NaN, "diverted": false, "cancelled": false, "simplified_departure_date": "2022-10-27", "origin_coords": [55.73819, 38.20927], "destination_coords": [53.62229, 27.951], "is_same_city": false}}, {"type": "Feature", "geometry": {"type": "LineString", "coordinates": [[41.234650000000016, 53.25374], [41.20488090588393, 53.28038140748906], [41.17507467927423, 53.30701539298945], [41.145231248134664, 53.33364194002777], [41.11535054028318, 53.360261032087706], [41.0854324833917, 53.386872652609846], [41.05547700498593, 53.41347678499153], [41.02548403244509, 53.44007341258675], [40.99545349300173, 53.466662518706066], [40.96538531374152, 53.493244086616436], [40.935279421602985, 53.5198180995411], [40.905135743377336, 53.546384540659425], [40.87495420570824, 53.57294339310688], [40.8447347350916, 53.59949463997479], [40.814477257875325, 53.626038264310274], [40.78418170025915, 53.65257424911612], [40.75384798829438, 53.67910257735064], [40.72347604788373, 53.70562323192754], [40.693065804781064, 53.7321361957158], [40.662617184591205, 53.758641451539575], [40.632130112769715, 53.78513898217802], [40.60160451462271, 53.81162877036517], [40.57104031530658, 53.838110798789835], [40.540437439827905, 53.86458505009548], [40.50979581304312, 53.89105150688005], [40.47911535965837, 53.91751015169586], [40.448396004229295, 53.94396096704949], [40.417637671160826, 53.97040393540164], [40.38684028470698, 53.996839039166964], [40.35600376897062, 54.02326626071398], [40.325128047903334, 54.04968558236495], [40.29421304530515, 54.07609698639572], [40.26325868482435, 54.10250045503556], [40.23226488995732, 54.128895970467106], [40.20123158404831, 54.15528351482617], [40.170158690289185, 54.18166307020163], [40.13904613171937, 54.208034618635295], [40.107893831225475, 54.23439814212174], [40.07670171154123, 54.26075362260824], [40.04546969524727, 54.28710104199455], [40.01419770477086, 54.31344038213287], [39.98288566238578, 54.33977162482759], [39.951533490212114, 54.366094751835305], [39.92014111021606, 54.39240974486448], [39.88870844420969, 54.41871658557552], [39.85723541385086, 54.4450152555805], [39.82572194064292, 54.47130573644309], [39.79416794593458, 54.497588009678395], [39.76257335091973, 54.52386205675279], [39.730938076637194, 54.55012785908385], [39.699262043970634, 54.57638539804013], [39.667545173648286, 54.60263465494113], [39.635787386242825, 54.62887561105703], [39.603988602171164, 54.65510824760867], [39.572148741694285, 54.68133254576735], [39.54026772491704, 54.70754848665463], [39.508345471788, 54.73375605134237], [39.476381902099256, 54.759955220852376], [39.44437693548626, 54.786145976156426], [39.412330491427625, 54.81232829817602], [39.380242489244985, 54.8385021677823], [39.3481128481028, 54.86466756579589], [39.315941487008196, 54.89082447298675], [39.283728324810774, 54.91697287007401], [39.25147328020247, 54.94311273772591], [39.21917627171739, 54.96924405655954], [39.186837217731586, 54.995366807140776], [39.15445603646298, 55.02148096998411], [39.12203264597116, 55.04758652555257], [39.089566964157164, 55.07368345425739], [39.0570589087634, 55.09977173645812], [39.02450839737347, 55.12585135246227], [38.99191534741198, 55.15192228252529], [38.95927967614441, 55.177984506850336], [38.92660130067694, 55.20403800558819], [38.89388013795634, 55.23008275883712], [38.861116104769714, 55.25611874664264], [38.82830911774452, 55.282145948997474], [38.79545909334824, 55.308164345841334], [38.76256594788837, 55.3341739170608], [38.72962959751218, 55.36017464248919], [38.69664995820662, 55.38616650190636], [38.6636269457982, 55.41214947503859], [38.63056047595274, 55.43812354155844], [38.59745046417538, 55.46408868108456], [38.56429682581032, 55.490044873181624], [38.531099476040744, 55.51599209736006], [38.49785832988867, 55.54193033307599], [38.46457330221483, 55.567859559731055], [38.43124430771851, 55.59377975667224], [38.39787126093743, 55.619690903191774], [38.36445407624764, 55.64559297852692], [38.33099266786338, 55.6714859618598], [38.297486949836916, 55.69736983231739], [38.263936836058505, 55.72324456897119], [38.230342240256185, 55.749110150837154], [38.19670307599569, 55.774966556875555], [38.16301925668037, 55.800813765990775], [38.12929069555102, 55.82665175703118], [38.09551730568576, 55.852480508788965], [38.061699, 55.8783]]}, "properties": {"fa_flight_id": "RA65690-1668186937-adhoc-0", "registration": "RA-65690", "ident": "RA-65690", "ident_icao": NaN, "origin_code": "L 53.25374 41.23465", "origin_city": "Penza", "destination_code": "UUMU", "destination_city": NaN, "scheduled_out": NaN, "estimated_out": NaN, "actual_out": NaN, "scheduled_off": "2022-11-11T17:15:37Z", "estimated_off": "2022-11-11T17:15:37Z", "actual_off": "2022-11-11T17:15:37Z", "scheduled_on": NaN, "estimated_on": NaN, "actual_on": "2022-11-11T17:15:37Z", "scheduled_in": NaN, "estimated_in": NaN, "actual_in": NaN, "status": "result unknown", "route_distance": NaN, "diverted": false, "cancelled": false, "simplified_departure_date": "2022-11-11", "origin_coords": [53.25374, 41.23465], "destination_coords": [55.8783, 38.061699], "is_same_city": false}}, {"type": "Feature", "geometry": {"type": "LineString", "coordinates": [[37.95858, 55.94225], [38.0322391353902, 55.87892171682016], [38.10565827229224, 55.81554960213372], [38.17883859619882, 55.75213390252144], [38.25178128636216, 55.68867486291824], [38.32448751582017, 55.62517272662533], [38.396958451422556, 55.56162773532219], [38.469195253857315, 55.49804012907851], [38.541199077677035, 55.43441014636609], [38.612971071325504, 55.370738024070484], [38.68451237716419, 55.307023997502796], [38.75582413149899, 55.24326830041123], [38.826907464606904, 55.17947116499258], [38.89776350076288, 55.115632821903674], [38.968393358266574, 55.051753500272774], [39.03879814946936, 54.987833427710726], [39.10897898080119, 54.92387283032225], [39.17893695279767, 54.85987193271698], [39.24867316012702, 54.795830958020524], [39.318188691617166, 54.731750127885356], [39.38748463028287, 54.66762966250175], [39.4565620533528, 54.60346978060847], [39.52542203229676, 54.539270699503575], [39.59406563285272, 54.47503263505492], [39.66249391505414, 54.410755801710856], [39.73070793325707, 54.346440412510546], [39.79870873616739, 54.28208667909445], [39.86649736686794, 54.21769481171461], [39.93407486284578, 54.1532650192449], [40.001442256019395, 54.08879750919117], [40.06860057276582, 54.02429248770135], [40.13555083394783, 53.95975015957546], [40.202294054941135, 53.89517072827553], [40.268831245661495, 53.830554395935486], [40.335163410591825, 53.765901363370915], [40.401291548809326, 53.70121183008883], [40.46721665401253, 53.63648599429723], [40.53293971454837, 53.571724052914774], [40.598461713439164, 53.506926201580185], [40.66378362840959, 53.44209263466175], [40.728906431913664, 53.377223545266645], [40.79383109116158, 53.31231912525021], [40.8585585681466, 53.24737956522521], [40.92308981967189, 53.18240505457092], [40.9874257973772, 53.117395781442255], [41.0515674477657, 53.052351932778784], [41.11551571223054, 52.98727369431361], [41.179271527081504, 52.9221612505823], [41.242835823571596, 52.85701478493168], [41.30620952792346, 52.791834479528575], [41.36939356135589, 52.726620515368445], [41.43238884011018, 52.66137307228405], [41.495196275476424, 52.59609232895397], [41.55781677381977, 52.530778462911044], [41.620251236606634, 52.46543165055083], [41.682500560430775, 52.40005206713993], [41.744565637039315, 52.33463988682433], [41.806447353358806, 52.269195282637455], [41.86814659152102, 52.203718426508544], [41.92966422888882, 52.138209489270594], [41.99100113808194, 52.07266864066847], [42.05215818700256, 52.00709604936679], [42.11313623886101, 51.94149188295797], [42.17393615220118, 51.87585630796991], [42.23455878092602, 51.81018948987395], [42.29500497432286, 51.74449159309244], [42.35527557708864, 51.67876278100656], [42.41537142935515, 51.613003215963786], [42.47529336671406, 51.54721305928558], [42.53504222024198, 51.481392471274766], [42.594618816525326, 51.41554161122305], [42.65402397768518, 51.34966063741833], [42.713258521402, 51.28374970715211], [42.772323260940304, 51.21780897672665], [42.83121900517319, 51.15183860146227], [42.88994655860678, 51.08583873570448], [42.948506721404684, 51.01980953283103], [43.00690028941213, 50.953751145259], [43.065128054180256, 50.8876637244518], [43.123190802990166, 50.821547420926045], [43.18108931887691, 50.755402384258545], [43.238824380653305, 50.689228763093006], [43.296396762933895, 50.62302670514684], [43.35380723615848, 50.55679635721798], [43.4110565666158, 50.49053786519145], [43.46814551646699, 50.42425137404598], [43.52507484376903, 50.35793702786065], [43.58184530249798, 50.29159496982137], [43.638457642572234, 50.2252253422273], [43.69491260987556, 50.15882828649734], [43.75121094628012, 50.09240394317646], [43.80735338966939, 50.025952451941976], [43.86334067396092, 49.95947395160992], [43.919173529129026, 49.89296858014119], [43.97485268122735, 49.82643647464771], [44.03037885241143, 49.75987777139856], [44.085752760960936, 49.69329260582611], [44.140975121302134, 49.62668111253197], [44.196046644029856, 49.560043425292996], [44.2509680359297, 49.4933796770673], [44.30574, 49.42669]]}, "properties": {"fa_flight_id": "RA65690-1668145599-adhoc-0", "registration": "RA-65690", "ident": "RA-65690", "ident_icao": NaN, "origin_code": "L 55.94225 37.95858", "origin_city": "Moscow", "destination_code": "L 49.42669 44.30574", "destination_city": "Volgograd", "scheduled_out": NaN, "estimated_out": NaN, "actual_out": NaN, "scheduled_off": "2022-11-11T05:46:39Z", "estimated_off": "2022-11-11T05:46:39Z", "actual_off": "2022-11-11T05:46:39Z", "scheduled_on": NaN, "estimated_on": NaN, "actual_on": "2022-11-11T05:46:39Z", "scheduled_in": NaN, "estimated_in": NaN, "actual_in": NaN, "status": "result unknown", "route_distance": NaN, "diverted": false, "cancelled": false, "simplified_departure_date": "2022-11-11", "origin_coords": [55.94225, 37.95858], "destination_coords": [49.42669, 44.30574], "is_same_city": false}}, {"type": "Feature", "geometry": {"type": "LineString", "coordinates": [[37.73132, 54.95677], [37.721243080257, 54.95565710724761], [37.71116671885179, 54.95454338137283], [37.701090916148104, 54.953428822456274], [37.69101567250951, 54.95231343057862], [37.68094098829941, 54.95119720582059], [37.67086686388109, 54.950080148262956], [37.66079329961765, 54.948962257986544], [37.65072029587205, 54.94784353507223], [37.64064785300708, 54.94672397960092], [37.63057597138539, 54.94560359165361], [37.62050465136946, 54.94448237131131], [37.61043389332163, 54.94336031865508], [37.60036369760407, 54.942237433766074], [37.5902940645788, 54.94111371672543], [37.580224994607676, 54.93998916761441], [37.57015648805243, 54.93886378651425], [37.56008854527461, 54.937737573506276], [37.5500211666356, 54.93661052867189], [37.53995435249664, 54.93548265209248], [37.529888103218845, 54.93435394384952], [37.51982241916311, 54.93322440402455], [37.509757300690225, 54.93209403269913], [37.499692748160804, 54.93096282995487], [37.4896287619353, 54.92983079587346], [37.47956534237403, 54.92869793053658], [37.46950248983715, 54.92756423402605], [37.45944020468461, 54.926429706423654], [37.44937848727629, 54.92529434781125], [37.43931733797185, 54.924158158270785], [37.42925675713081, 54.92302113788422], [37.41919674511254, 54.921883286733554], [37.409137302276235, 54.920744604900854], [37.39907842898095, 54.91960509246824], [37.3890201255856, 54.91846474951788], [37.37896239244889, 54.917323576131984], [37.368905229929425, 54.916181572392794], [37.35884863838561, 54.91503873838265], [37.348792618175715, 54.91389507418389], [37.33873716965786, 54.912750579878924], [37.32868229318997, 54.911605255550235], [37.31862798912986, 54.91045910128031], [37.30857425783516, 54.9093121171517], [37.29852109966333, 54.90816430324703], [37.28846851497173, 54.907015659648934], [37.27841650411749, 54.90586618644013], [37.268365067457616, 54.90471588370337], [37.25831420534896, 54.903564751521444], [37.24826391814821, 54.9024127899772], [37.23821420621191, 54.90125999915356], [37.22816506989641, 54.90010637913345], [37.218116509557944, 54.89895192999988], [37.20806852555256, 54.89779665183588], [37.19802111823615, 54.89664054472456], [37.18797428796446, 54.89548360874905], [37.177928035093075, 54.89432584399257], [37.16788235997741, 54.893167250538326], [37.157837262972734, 54.89200782846961], [37.147792744434156, 54.89084757786978], [37.137748804716615, 54.88968649882221], [37.12770544417491, 54.888524591410345], [37.11766266316365, 54.88736185571764], [37.10762046203733, 54.886198291827654], [37.09757884115025, 54.88503389982396], [37.087537800856566, 54.88386867979019], [37.07749734151027, 54.88270263181001], [37.067457463465196, 54.881535755967164], [37.05741816707502, 54.8803680523454], [37.047379452693264, 54.87919952102856], [37.03734132067328, 54.87803016210052], [37.02730377136826, 54.87685997564519], [37.01726680513124, 54.87568896174652], [37.007230422315125, 54.87451712048855], [36.9971946232726, 54.87334445195533], [36.987159408356256, 54.872170956230974], [36.977124777918455, 54.87099663339965], [36.967090732311476, 54.86982148354557], [36.95705727188738, 54.868645506752955], [36.947024396998096, 54.86746870310616], [36.936992107995366, 54.866291072689506], [36.9269604052308, 54.86511261558738], [36.91692928905586, 54.86393333188426], [36.906898759821786, 54.86275322166463], [36.89686881787974, 54.86157228501304], [36.88683946358064, 54.860390522014065], [36.87681069727533, 54.859207932752376], [36.86678251931441, 54.85802451731262], [36.85675493004838, 54.85684027577956], [36.84672792982756, 54.85565520823798], [36.8367015190021, 54.854469314772686], [36.826675697921985, 54.85328259546859], [36.81665046693707, 54.852095050410604], [36.80662582639703, 54.85090667968369], [36.79660177665138, 54.849717483372885], [36.78657831804946, 54.84852746156325], [36.77655545094047, 54.847336614339916], [36.76653317567345, 54.84614494178804], [36.75651149259726, 54.84495244399282], [36.746490402060616, 54.843759121039525], [36.73646990441207, 54.84256497301346], [36.72645, 54.84137]]}, "properties": {"fa_flight_id": "RA65690-1702887488-adhoc-471p", "registration": "RA-65690", "ident": "RA-65690", "ident_icao": NaN, "origin_code": "L 54.95677 37.73132", "origin_city": "Moscow", "destination_code": "L 54.84137 36.72645", "destination_city": "Moscow", "scheduled_out": NaN, "estimated_out": NaN, "actual_out": NaN, "scheduled_off": "2023-12-18T08:18:00Z", "estimated_off": "2023-12-18T08:18:00Z", "actual_off": "2023-12-18T08:18:00Z", "scheduled_on": NaN, "estimated_on": NaN, "actual_on": "2023-12-18T08:18:00Z", "scheduled_in": NaN, "estimated_in": NaN, "actual_in": NaN, "status": "result unknown", "route_distance": NaN, "diverted": false, "cancelled": false, "simplified_departure_date": "2023-12-18", "origin_coords": [54.95677, 37.73132], "destination_coords": [54.84137, 36.72645], "is_same_city": false}}, {"type": "Feature", "geometry": {"type": "LineString", "coordinates": [[28.73869, 54.135310000000004], [28.74145797942884, 54.13694015724352], [28.74422617674494, 54.138570250992906], [28.746994591970022, 54.14020028123937], [28.749763225125804, 54.14183024797409], [28.752532076234, 54.143460151188265], [28.75530114531635, 54.14508999087309], [28.758070432394558, 54.14671976701975], [28.76083993749037, 54.14834947961945], [28.763609660625495, 54.14997912866337], [28.766379601821676, 54.15160871414268], [28.76914976110062, 54.15323823604859], [28.771920138484063, 54.154867694372285], [28.774690733993744, 54.156497089104946], [28.77746154765137, 54.15812642023775], [28.780232579478696, 54.15975568776188], [28.78300382949744, 54.161384891668526], [28.78577529772933, 54.16301403194886], [28.788546984196113, 54.164643108594056], [28.791318888919513, 54.1662721215953], [28.79409101192125, 54.167901070943756], [28.79686335322308, 54.1695299566306], [28.79963591284673, 54.17115877864701], [28.802408690813934, 54.17278753698417], [28.80518168714643, 54.174416231633224], [28.80795490186595, 54.176044862585364], [28.810728334994252, 54.17767342983175], [28.81350198655305, 54.179301933363526], [28.8162758565641, 54.1809303731719], [28.81904994504914, 54.18255874924801], [28.821824252029902, 54.18418706158301], [28.824598777528138, 54.18581531016809], [28.827373521565583, 54.187443494994405], [28.83014848416399, 54.18907161605308], [28.832923665345096, 54.1906996733353], [28.835699065130655, 54.19232766683224], [28.83847468354239, 54.19395559653501], [28.841250520602063, 54.19558346243481], [28.84402657633143, 54.197211264522764], [28.846802850752226, 54.19883900279003], [28.849579343886198, 54.20046667722776], [28.852356055755102, 54.2020942878271], [28.855132986380692, 54.2037218345792], [28.857910135784703, 54.20534931747521], [28.8606875039889, 54.20697673650629], [28.863465091015026, 54.208604091663545], [28.86624289688484, 54.21023138293814], [28.869020921620095, 54.21185861032122], [28.871799165242553, 54.21348577380393], [28.874577627773956, 54.21511287337739], [28.877356309236056, 54.21673990903275], [28.88013520965062, 54.218366880761145], [28.882914329039405, 54.219993788553715], [28.885693667424167, 54.22162063240159], [28.88847322482667, 54.223247412295905], [28.891253001268655, 54.22487412822778], [28.894032996771898, 54.22650078018836], [28.896813211358154, 54.22812736816876], [28.899593645049194, 54.22975389216012], [28.90237429786677, 54.23138035215356], [28.905155169832646, 54.23300674814021], [28.90793626096859, 54.23463308011121], [28.91071757129636, 54.236259348057644], [28.913499100837726, 54.23788555197065], [28.916280849614445, 54.23951169184136], [28.919062817648303, 54.241137767660895], [28.921845004961053, 54.24276377942035], [28.92462741157446, 54.244389727110864], [28.9274100375103, 54.24601561072353], [28.930192882790333, 54.247641430249494], [28.932975947436343, 54.24926718567984], [28.935759231470087, 54.25089287700569], [28.938542734913344, 54.25251850421816], [28.94132645778789, 54.254144067308346], [28.94411040011548, 54.25576956626735], [28.94689456191791, 54.25739500108631], [28.949678943216945, 54.25902037175629], [28.95246354403435, 54.26064567826843], [28.95524836439192, 54.262270920613815], [28.95803340431142, 54.26389609878356], [28.96081866381462, 54.26552121276874], [28.96360414292331, 54.26714626256049], [28.96638984165926, 54.26877124814987], [28.96917576004425, 54.27039616952798], [28.97196189810007, 54.27202102668595], [28.974748255848496, 54.27364581961484], [28.977534833311296, 54.275270548305755], [28.980321630510275, 54.27689521274978], [28.983108647467187, 54.27851981293802], [28.985895884203842, 54.28014434886156], [28.98868334074201, 54.28176882051148], [28.991471017103468, 54.28339322787886], [28.994258913310034, 54.28501757095479], [28.997047029383452, 54.286641849730366], [28.999835365345533, 54.28826606419666], [29.002623921218063, 54.28989021434476], [29.00541269702283, 54.29151430016573], [29.008201692781608, 54.293138321650666], [29.01099090851621, 54.29476227879064], [29.01378034424841, 54.29638617157673], [29.01657000000001, 54.29801]]}, "properties": {"fa_flight_id": "RA65690-1705325281-adhoc-1875p", "registration": "RA-65690", "ident": "RA-65690", "ident_icao": NaN, "origin_code": "L 54.13531 28.73869", "origin_city": "Minsk", "destination_code": "L 54.29801 29.01657", "destination_city": "Minsk", "scheduled_out": NaN, "estimated_out": NaN, "actual_out": NaN, "scheduled_off": "2024-01-15T13:27:55Z", "estimated_off": "2024-01-15T13:27:55Z", "actual_off": "2024-01-15T13:27:55Z", "scheduled_on": NaN, "estimated_on": NaN, "actual_on": "2024-01-15T13:27:55Z", "scheduled_in": NaN, "estimated_in": NaN, "actual_in": NaN, "status": "result unknown", "route_distance": NaN, "diverted": false, "cancelled": false, "simplified_departure_date": "2024-01-15", "origin_coords": [54.13531, 28.73869], "destination_coords": [54.29801, 29.01657], "is_same_city": false}}, {"type": "Feature", "geometry": {"type": "LineString", "coordinates": [[29.10001, 54.06542999999999], [29.079507723480404, 54.06001253152947], [29.059010796110307, 54.05459157769686], [29.038519218867094, 54.04916714010538], [29.018032992723313, 54.04373922035833], [28.997552118646666, 54.038307820059046], [28.977076597600004, 54.03287294081095], [28.956606430541353, 54.027434584217524], [28.936141618423886, 54.021992751882316], [28.915682162196003, 54.016547445408925], [28.895228062801195, 54.011098666401], [28.874779321178195, 54.00564641646229], [28.85433593826093, 54.00019069719654], [28.833897914978447, 53.99473151020758], [28.813465252255078, 53.98926885709929], [28.793037951010277, 53.983802739475614], [28.77261601215874, 53.97833315894052], [28.75219943661037, 53.972860117098044], [28.731788225270257, 53.96738361555225], [28.711382379038742, 53.96190365590725], [28.69098189881136, 53.95642023976721], [28.67058678547888, 53.95093336873634], [28.6501970399273, 53.94544304441887], [28.629812663037846, 53.93994926841906], [28.609433655687003, 53.93445204234126], [28.589060018746473, 53.92895136778979], [28.568691753083222, 53.92344724636907], [28.548328859559465, 53.91793967968348], [28.52797133903266, 53.912428669337466], [28.50761919235555, 53.906914216935526], [28.487272420376133, 53.901396324082135], [28.466931023937665, 53.895874992381835], [28.44659500387868, 53.89035022343917], [28.42626436103302, 53.88482201885872], [28.405939096229773, 53.87929038024508], [28.385619210293317, 53.87375530920285], [28.365304704043357, 53.86821680733669], [28.344995578294863, 53.86267487625121], [28.324691833858115, 53.85712951755109], [28.30439347153871, 53.851580732841015], [28.284100492137533, 53.846028523725664], [28.263812896450805, 53.840472891809746], [28.243530685270056, 53.83491383869795], [28.223253859382137, 53.82935136599499], [28.202982419569253, 53.823785475305606], [28.182716366608904, 53.8182161682345], [28.162455701273952, 53.81264344638641], [28.142200424332596, 53.80706731136607], [28.12195053654839, 53.8014877647782], [28.101706038680213, 53.795904808227526], [28.081466931482346, 53.79031844331877], [28.061233215704387, 53.784728671656644], [28.04100489209132, 53.77913549484587], [28.0207819613835, 53.77353891449115], [28.00056442431664, 53.76793893219716], [27.98035228162185, 53.7623355495686], [27.960145534025628, 53.75672876821014], [27.939944182249835, 53.75111858972644], [27.91974822701175, 53.74550501572212], [27.89955766902403, 53.739888047801834], [27.879372508994752, 53.73426768757017], [27.859192747627393, 53.728643936631705], [27.839018385620832, 53.72301679659103], [27.818849423669384, 53.717386269052675], [27.79868586246276, 53.71175235562116], [27.778527702686123, 53.70611505790097], [27.758374945020034, 53.70047437749657], [27.738227590140514, 53.69483031601241], [27.718085638719014, 53.689182875052886], [27.69794909142245, 53.68353205622237], [27.67781794891314, 53.67787786112522], [27.657692211848904, 53.67222029136571], [27.637571880882987, 53.66655934854817], [27.61745695666411, 53.66089503427678], [27.59734743983645, 53.65522735015574], [27.577243331039693, 53.64955629778924], [27.557144630908937, 53.64388187878136], [27.53705134007482, 53.638204094736174], [27.516963459163442, 53.63252294725771], [27.496880988796388, 53.62683843794997], [27.47680392959076, 53.621150568416844], [27.456732282159123, 53.61545934026225], [27.436666047109583, 53.60976475509], [27.416605225045743, 53.60406681450389], [27.39654981656671, 53.59836552010762], [27.37649982226713, 53.59266087350489], [27.35645524273714, 53.58695287629929], [27.33641607856245, 53.58124153009441], [27.31638233032426, 53.57552683649372], [27.296353998599333, 53.56980879710067], [27.27633108395997, 53.56408741351864], [27.256313586974013, 53.558362687350936], [27.23630150820486, 53.55263462020081], [27.21629484821146, 53.54690321367145], [27.196293607548338, 53.54116846936596], [27.17629778676556, 53.5354303888874], [27.15630738640879, 53.529688973838724], [27.136322407019254, 53.523944225822866], [27.116342849133748, 53.51819614644263], [27.096368713284665, 53.51244473730079], [27.0764, 53.50669]]}, "properties": {"fa_flight_id": "RA65690-1721396071-adhoc-447p", "registration": "RA-65690", "ident": "RA-65690", "ident_icao": NaN, "origin_code": "L 54.06543 29.10001", "origin_city": "Minsk", "destination_code": "L 53.50669 27.07640", "destination_city": "Minsk", "scheduled_out": NaN, "estimated_out": NaN, "actual_out": NaN, "scheduled_off": "2024-07-19T13:34:25Z", "estimated_off": "2024-07-19T13:34:25Z", "actual_off": "2024-07-19T13:34:25Z", "scheduled_on": NaN, "estimated_on": NaN, "actual_on": "2024-07-19T13:34:25Z", "scheduled_in": NaN, "estimated_in": NaN, "actual_in": NaN, "status": "result unknown", "route_distance": NaN, "diverted": false, "cancelled": false, "simplified_departure_date": "2024-07-19", "origin_coords": [54.06543, 29.10001], "destination_coords": [53.50669, 27.0764], "is_same_city": false}}, {"type": "Feature", "geometry": {"type": "LineString", "coordinates": [[38.02011, 56.1020111174991], [38.03020011539501, 56.10183385630869], [38.0402504097143, 56.10130277230637], [38.05022121903772, 56.10041996143808], [38.0600731931361, 56.099188907755], [38.06976745076862, 56.0976144696636], [38.07926573312929, 56.09570286075173], [38.08853055483698, 56.09346162526644], [38.09752535187311, 56.090899608340266], [38.106214625883105, 56.08802692108355], [38.1145640842722, 56.08485490068047], [38.12254077554264, 56.08139606564641], [38.130113219338185, 56.077664066423054], [38.13725153068269, 56.07367363150635], [38.14392753792247, 56.06944050931986], [38.15011489390692, 56.06498140606293], [38.1557891799687, 56.06031391977893], [38.160928002293076, 56.055456470903856], [38.165511080296014, 56.05042822956927], [38.16952032666247, 56.04524903994652], [38.172939918728666, 56.03993934193092], [38.175756360927, 56.03452009047474], [38.1779585380468, 56.02901267288769], [38.17953775910107, 56.023438824430855], [38.18048779162579, 56.01782054253767], [38.1808048862766, 56.01218], [38.18048779162579, 56.00653945746233], [38.17953775910107, 56.00092117556915], [38.1779585380468, 55.99534732711231], [38.175756360927, 55.98983990952526], [38.172939918728666, 55.984420658069084], [38.16952032666247, 55.97911096005348], [38.165511080296014, 55.97393177043073], [38.160928002293076, 55.968903529096146], [38.1557891799687, 55.964046080221074], [38.15011489390692, 55.959378593937075], [38.14392753792247, 55.95491949068014], [38.13725153068269, 55.95068636849365], [38.130113219338185, 55.94669593357695], [38.12254077554264, 55.94296393435359], [38.1145640842722, 55.93950509931953], [38.106214625883105, 55.936333078916455], [38.09752535187311, 55.933460391659736], [38.08853055483698, 55.93089837473356], [38.07926573312929, 55.92865713924827], [38.06976745076862, 55.926745530336404], [38.0600731931361, 55.925171092245], [38.05022121903772, 55.92394003856192], [38.0402504097143, 55.92305722769363], [38.03020011539501, 55.922526143691314], [38.02011, 55.9223488825009], [38.01001988460499, 55.922526143691314], [37.99996959028571, 55.92305722769363], [37.98999878096229, 55.92394003856192], [37.98014680686391, 55.925171092245], [37.97045254923138, 55.926745530336404], [37.960954266870715, 55.92865713924827], [37.95168944516303, 55.93089837473356], [37.942694648126896, 55.933460391659736], [37.9340053741169, 55.936333078916455], [37.9256559157278, 55.93950509931953], [37.917679224457366, 55.94296393435359], [37.91010678066182, 55.94669593357695], [37.902968469317315, 55.95068636849365], [37.89629246207753, 55.95491949068014], [37.89010510609309, 55.959378593937075], [37.884430820031305, 55.964046080221074], [37.87929199770693, 55.968903529096146], [37.87470891970399, 55.97393177043073], [37.87069967333753, 55.97911096005348], [37.86728008127134, 55.984420658069084], [37.86446363907301, 55.98983990952526], [37.8622614619532, 55.99534732711231], [37.86068224089893, 56.00092117556915], [37.85973220837422, 56.00653945746233], [37.85941511372341, 56.01218], [37.85973220837422, 56.01782054253767], [37.86068224089893, 56.023438824430855], [37.8622614619532, 56.02901267288769], [37.86446363907301, 56.03452009047474], [37.86728008127134, 56.03993934193092], [37.87069967333753, 56.04524903994652], [37.87470891970399, 56.05042822956927], [37.87929199770693, 56.055456470903856], [37.884430820031305, 56.06031391977893], [37.89010510609309, 56.06498140606293], [37.89629246207753, 56.06944050931986], [37.902968469317315, 56.07367363150635], [37.91010678066182, 56.077664066423054], [37.917679224457366, 56.08139606564641], [37.9256559157278, 56.08485490068047], [37.9340053741169, 56.08802692108355], [37.942694648126896, 56.090899608340266], [37.95168944516303, 56.09346162526644], [37.960954266870715, 56.09570286075173], [37.97045254923138, 56.0976144696636], [37.98014680686391, 56.099188907755], [37.98999878096229, 56.10041996143808], [37.99996959028571, 56.10130277230637], [38.01001988460499, 56.10183385630869], [38.02011, 56.1020111174991]]}, "properties": {"fa_flight_id": "RA65690-1721392283-adhoc-1612p", "registration": "RA-65690", "ident": "RA-65690", "ident_icao": NaN, "origin_code": "L 56.01218 38.02011", "origin_city": "Moscow", "destination_code": "L 56.01218 38.02011", "destination_city": "Moscow", "scheduled_out": NaN, "estimated_out": NaN, "actual_out": NaN, "scheduled_off": "2024-07-19T12:31:17Z", "estimated_off": "2024-07-19T12:31:17Z", "actual_off": "2024-07-19T12:31:17Z", "scheduled_on": NaN, "estimated_on": NaN, "actual_on": "2024-07-19T12:31:17Z", "scheduled_in": NaN, "estimated_in": NaN, "actual_in": NaN, "status": "result unknown", "route_distance": NaN, "diverted": false, "cancelled": false, "simplified_departure_date": "2024-07-19", "origin_coords": [56.01218, 38.02011], "destination_coords": [56.01218, 38.02011], "is_same_city": true}}, {"type": "Feature", "geometry": {"type": "LineString", "coordinates": [[26.607439999999997, 53.25109], [26.64812763615088, 53.26367392778012], [26.68883921229475, 53.276243997472505], [26.729574727059735, 53.2888001945776], [26.770334178997544, 53.301342504592164], [26.811117566583125, 53.313870913009296], [26.851924888214548, 53.32638540531851], [26.89275614221277, 53.33888596700574], [26.93361132682146, 53.351372583553406], [26.974490440206814, 53.3638452404405], [27.015393480457284, 53.376303923142565], [27.056320445583488, 53.3887486171318], [27.097271333517927, 53.401179307877086], [27.138246142114813, 53.41359598084407], [27.179244869149876, 53.42599862149513], [27.220267512320206, 53.43838721528955], [27.261314069243962, 53.45076174768345], [27.302384537460267, 53.463122204129924], [27.343478914428946, 53.475468570079016], [27.384597197530404, 53.48780083097784], [27.42573938406532, 53.500118972270606], [27.466905471254563, 53.51242297939865], [27.508095456238912, 53.52471283780051], [27.549309336078935, 53.53698853291196], [27.590547107754713, 53.5492500501661], [27.631808768165687, 53.561497374993344], [27.673094314130484, 53.57373049282153], [27.714403742386672, 53.58594938907593], [27.755737049590618, 53.59815404917935], [27.797094232317207, 53.61034445855213], [27.838475287059758, 53.62252060261224], [27.879880210229757, 53.6346824667753], [27.921308998156665, 53.64683003645466], [27.962761647087763, 53.658963297061426], [28.00423815318791, 53.67108223400457], [28.045738512539383, 53.683186832690886], [28.087262721141663, 53.69527707852512], [28.128810774911276, 53.70735295691004], [28.17038266968154, 53.719414453246415], [28.211978401202412, 53.731461552933105], [28.253597965140294, 53.74349424136716], [28.29524135707785, 53.7555125039438], [28.336908572513757, 53.76751632605652], [28.378599606862586, 53.77950569309712], [28.420314455454566, 53.79148059045579], [28.462053113535397, 53.80344100352112], [28.503815576266067, 53.81538691768022], [28.54560183872265, 53.827318318318675], [28.587411895896125, 53.83923519082071], [28.629245742692202, 53.85113752056921], [28.67110337393106, 53.863025292945736], [28.71298478434726, 53.87489849333062], [28.754889968589456, 53.88675710710303], [28.796818921220275, 53.898601119640965], [28.838771636716096, 53.91043051632142], [28.88074810946686, 53.92224528252034], [28.922748333775896, 53.934045403612735], [28.964772303859714, 53.94583086497271], [29.00682001384783, 53.95760165197354], [29.04889145778257, 53.96935774998773], [29.090986629618858, 53.98109914438703], [29.13310552322412, 53.992825820542585], [29.175248132377956, 54.00453776382491], [29.217414450772054, 54.01623495960394], [29.25960447201, 54.0279173932492], [29.30181818960702, 54.03958505012971], [29.34405559698988, 54.05123791561417], [29.386316687496628, 54.062875975070995], [29.428601454376462, 54.07449921386828], [29.470909890789514, 54.086107617374], [29.513241989806673, 54.09770117095596], [29.55559774440939, 54.10927985998192], [29.597977147489516, 54.12084366981962], [29.640380191849122, 54.132392585836854], [29.682806870200245, 54.14392659340155], [29.725257175164796, 54.15544567788179], [29.767731099274346, 54.16694982464587], [29.8102286349699, 54.178439019062445], [29.85274977460178, 54.189913246500474], [29.8952945104294, 54.20137249232936], [29.937862834621097, 54.21281674191898], [29.980454739253954, 54.224245980639765], [30.023070216313588, 54.235660193862714], [30.065709257694053, 54.24705936695956], [30.10837185519755, 54.25844348530271], [30.1510580005343, 54.26981253426539], [30.193767685322403, 54.28116649922167], [30.23650090108758, 54.292505365546546], [30.27925763926305, 54.30382911861601], [30.322037891189336, 54.31513774380706], [30.364841648114105, 54.32643122649783], [30.407668901191904, 54.33770955206763], [30.450519641484153, 54.34897270589701], [30.49339385995878, 54.36022067336777], [30.536291547490162, 54.37145343986318], [30.579212694858928, 54.38267099076782], [30.62215729275176, 54.39387331146783], [30.665125331761228, 54.40506038735089], [30.708116802385646, 54.416232203806324], [30.751131695028832, 54.42738874622511], [30.79417, 54.43853]]}, "properties": {"fa_flight_id": "RA65690-1721472127-adhoc-2978p", "registration": "RA-65690", "ident": "RA-65690", "ident_icao": NaN, "origin_code": "L 53.25109 26.60744", "origin_city": "Minsk", "destination_code": "L 54.43853 30.79417", "destination_city": "Vitebsk", "scheduled_out": NaN, "estimated_out": NaN, "actual_out": NaN, "scheduled_off": "2024-07-20T10:42:01Z", "estimated_off": "2024-07-20T10:42:01Z", "actual_off": "2024-07-20T10:42:01Z", "scheduled_on": NaN, "estimated_on": NaN, "actual_on": "2024-07-20T10:42:01Z", "scheduled_in": NaN, "estimated_in": NaN, "actual_in": NaN, "status": "result unknown", "route_distance": NaN, "diverted": false, "cancelled": false, "simplified_departure_date": "2024-07-20", "origin_coords": [53.25109, 26.60744], "destination_coords": [54.43853, 30.79417], "is_same_city": false}}]}